key,city,district,neighborhood,distanceKm,duration,level,favorite,name,pointOrder,longitude,latitude
BE_IW43-1024,서울,관악구,대학동,1.3,30분,1,0,관악산 자락길(무장애숲길),1469,126.944028,37.45858475
BE_IW43-1025,서울,관악구,대학동,1.3,30분,1,0,관악산 자락길(무장애숲길),1470,126.9445053,37.45860182
BE_IW43-1026,서울,관악구,대학동,1.3,30분,1,0,관악산 자락길(무장애숲길),1471,126.9464575,37.45738177
BE_IW43-1027,서울,관악구,대학동,1.3,30분,1,0,관악산 자락길(무장애숲길),1472,126.9459834,37.45669497
BE_IW43-1028,서울,관악구,대학동,1.3,30분,1,0,관악산 자락길(무장애숲길),1473,126.945168,37.45777918
BE_IW43-1029,서울,관악구,대학동,1.3,30분,1,0,관악산 자락길(무장애숲길),1474,126.9441074,37.47104496
BE_IW43-1030,서울,관악구,대학동,1.3,30분,1,0,관악산 자락길(무장애숲길),1475,126.9457349,37.4696861
BE_IW43-1031,서울,관악구,대학동,1.3,30분,1,0,관악산 자락길(무장애숲길),1476,126.9450633,37.46110873
BE_IW43-1023,서울,관악구,대학동,1.3,30분,1,0,관악산 자락길(무장애숲길),1468,126.9435379,37.45853803
BE_IW43-1068,서울,종로구,종로5·6가동,1.8, 1시간,1,0,흥인지문 구간,1444,127.0075939,37.57384831
BE_IW43-1070,서울,중구,장충동,1.8, 1시간,1,0,흥인지문 구간,1446,127.0049095,37.56087793
BE_IW43-1071,서울,종로구,종로5·6가동,1.8, 1시간,1,0,흥인지문 구간,1465,127.0075731,37.57417637
BE_IW43-1072,서울,중구,장충동,1.8, 1시간,1,0,흥인지문 구간,1466,127.0042611,37.56155241
BE_IW43-1073,서울,중구,광희동,1.8, 1시간,1,0,흥인지문 구간,1467,127.0067347,37.56852916
BE_IW43-1069,서울,중구,광희동,1.8, 1시간,1,0,흥인지문 구간,1445,127.0078857,37.56711205
BE_IW43-1063,서울,종로구,사직동,4, 2시간 30분,2,0,인왕산 구간,1442,126.9656187,37.5784073
BE_IW43-1064,서울,종로구,청운효자동,4, 2시간 30분,2,0,인왕산 구간,1443,126.9643738,37.59535213
BE_IW43-1065,서울,종로구,청운효자동,4, 2시간 30분,2,0,인왕산 구간,1462,126.9651645,37.59499196
BE_IW43-1066,서울,서대문구,충현동,4, 2시간 30분,2,0,인왕산 구간,1463,126.9643492,37.56849207
BE_IW43-1067,서울,종로구,사직동,4, 2시간 30분,2,0,인왕산 구간,1464,126.9703305,37.57871118
BE_IW43-1061,서울,종로구,교남동,4, 2시간 30분,2,0,인왕산 구간,1440,126.9665748,37.57095213
BE_IW43-1062,서울,종로구,사직동,4, 2시간 30분,2,0,인왕산 구간,1441,126.9624528,37.57693723
BE_IW43-1058,서울,중구,회현동,1.8, 1시간,1,0,숭례문 구간,1459,126.9693139,37.55786401
BE_IW43-1056,서울,종로구,교남동,1.8, 1시간,1,0,숭례문 구간,1439,126.9666292,37.57102504
BE_IW43-1055,서울,중구,소공동,1.8, 1시간,1,0,숭례문 구간,1438,126.9732071,37.56288962
BE_IW43-1054,서울,중구,회현동,1.8, 1시간,1,0,숭례문 구간,1437,126.9775975,37.5577937
BE_IW43-1060,서울,서대문구,충현동,1.8, 1시간,1,0,숭례문 구간,1461,126.96416,37.5682866
BE_IW43-1059,서울,중구,소공동,1.8, 1시간,1,0,숭례문 구간,1460,126.9749144,37.56752987
BE_IW43-1057,서울,중구,회현동,1.8, 1시간,1,0,숭례문 구간,1458,126.9760487,37.56119233
BE_IW43-1046,서울,종로구,청운효자동,4.7,3시간,2,0,백산 구간,1431,126.9643738,37.59535213
BE_IW43-1053,서울,종로구,이화동,4.7,3시간,2,0,백산 구간,1455,126.9997958,37.58568355
BE_IW43-1052,서울,종로구,청운효자동,4.7,3시간,2,0,백산 구간,1454,126.9651645,37.59499196
BE_IW43-1051,서울,성북구,성북동,4.7,3시간,2,0,백산 구간,1453,127.0037841,37.59113851
BE_IW43-1050,서울,종로구,혜화동,4.7,3시간,2,0,백산 구간,1435,127.0016075,37.59063894
BE_IW43-1049,서울,종로구,혜화동,4.7,3시간,2,0,백산 구간,1434,126.987994,37.59403283
BE_IW43-1048,서울,성북구,성북동,4.7,3시간,2,0,백산 구간,1433,126.9811833,37.59754139
BE_IW43-1047,서울,종로구,삼청동,4.7,3시간,2,0,백산 구간,1432,126.9789546,37.59840788
BE_IW43-1045,서울,중구,필동,4.2,3시간,2,0,낙산 구간,1452,126.9889599,37.55377239
BE_IW43-1039,서울,중구,장충동,4.2,3시간,2,0,남산 구간,1427,127.0050121,37.56093163
BE_IW43-1040,서울,중구,장충동,4.2,3시간,2,0,남산 구간,1428,126.9980229,37.55503692
BE_IW43-1041,서울,용산구,용산2가동,4.2,3시간,2,0,남산 구간,1429,126.9865096,37.55423321
BE_IW43-1042,서울,중구,회현동,4.2,3시간,2,0,남산 구간,1430,126.9776839,37.55782841
BE_IW43-1043,서울,중구,장충동,4.2,3시간,2,0,낙산 구간,1450,126.9981186,37.55432633
BE_IW43-1044,서울,중구,장충동,4.2,3시간,2,0,낙산 구간,1451,126.9962979,37.55269726
BE_IW43-1038,서울,중구,장충동,4.2,3시간,2,0,남산 구간,1426,127.0042611,37.56155241
BE_IW43-1034,서울,종로구,종로5·6가동,2.1,1시간,1,0,낙산 구간,1425,127.0074041,37.57394056
BE_IW43-1033,서울,종로구,이화동,2.1,1시간,1,0,낙산 구간,1424,127.0062064,37.5837006
BE_IW43-1032,서울,종로구,혜화동,2.1,1시간,1,0,낙산 구간,1423,127.0016075,37.59063894
BE_IW43-1036,서울,종로구,창신1동,2.1,1시간,1,0,낙산 구간,1448,127.0084083,37.5743769
BE_IW43-1037,서울,종로구,이화동,2.1,1시간,1,0,낙산 구간,1449,126.9997958,37.58568355
BE_IW43-1035,서울,성북구,성북동,2.1,1시간,1,0,낙산 구간,1447,127.0037841,37.59113851
BE_IW43-1018,서울,서대문구,천연동,7,2시간 ,1,0,안산 자락길,1024,126.9526119,37.57830129
BE_IW43-1022,서울,서대문구,천연동,7,2시간 ,1,0,안산 자락길,1028,126.9548711,37.57787371
BE_IW43-1021,서울,서대문구,연희동,7,2시간 ,1,0,안산 자락길,1027,126.9339197,37.5812607
BE_IW43-1020,서울,서대문구,연희동,7,2시간 ,1,0,안산 자락길,1026,126.9396311,37.57764454
BE_IW43-1019,서울,서대문구,연희동,7,2시간 ,1,0,안산 자락길,1025,126.9426406,37.57997497
BE_IW43-1017,서울,서대문구,신촌동,7,2시간 ,1,0,안산 자락길,1023,126.9451818,37.57506707
BE_IW43-1016,서울,서대문구,홍제1동,7,2시간 ,1,0,안산 자락길,1022,126.9445481,37.58419391
BE_IW43-1015,서울,서대문구,연희동,7,2시간 ,1,0,안산 자락길,1019,126.9361525,37.58221493
BE_IW43-1014,서울,종로구,사직동,2.5,1시간,1,0,인왕산 자락길,1012,126.9695121,37.57886186
BE_IW43-1013,서울,종로구,사직동,2.5,1시간,1,0,인왕산 자락길,1011,126.962051,37.58038991
BE_IW43-1012,서울,종로구,부암동,2.5,1시간,1,0,인왕산 자락길,1010,126.9643626,37.59530599
BE_IW43-1011,서울,종로구,청운효자동,2.5,1시간,1,0,인왕산 자락길,1009,126.9650591,37.59484218
BE_IW43-1010,서울,종로구,청운효자동,2.5,1시간,1,0,인왕산 자락길,1008,126.9644061,37.59357008
BE_IW43-1009,서울,종로구,청운효자동,2.5,1시간,1,0,인왕산 자락길,1007,126.963846,37.59361796
BE_IW43-1008,서울,종로구,청운효자동,2.5,1시간,1,0,인왕산 자락길,1006,126.9593502,37.58548109
BE_IW43-1007,서울,종로구,사직동,2.5,1시간,1,0,인왕산 자락길,1005,126.963515,37.57849522
BE_IW43-1006,서울,종로구,사직동,2.5,1시간,1,0,인왕산 자락길,1004,126.9648832,37.57783969
BE_IW43-1005,서울,양천구,신정3동,4.6,2시간30분,1,0,신중산 자락길,1003,126.8426384,37.51262861
BE_IW43-1004,서울,양천구,신정3동,4.6,2시간30분,1,0,신중산 자락길,1002,126.846881,37.51402431
BE_IW43-1003,서울,구로구,고척2동,4.6,2시간30분,1,0,신중산 자락길,1001,126.8509995,37.50786464
BE_IW43-1002,서울,구로구,고척2동,4.6,2시간30분,1,0,신중산 자락길,1000,126.8532272,37.51222483
BE_IW43-1001,서울,양천구,신정3동,4.6,2시간30분,1,0,신중산 자락길,999,126.8421041,37.51516247
BE_IW43-0999,서울,성북구,정릉4동,1.2,40분,1,0,북한산 자락길,997,127.004171,37.62118403
BE_IW43-1000,서울,성북구,정릉4동,1.2,40분,1,0,북한산 자락길,998,127.0044889,37.62281895
BE_IW43-0998,서울,성북구,정릉4동,1.2,40분,1,0,북한산 자락길,995,127.0022144,37.62293839
BE_IW43-0997,서울,성북구,정릉4동,1.2,40분,1,0,북한산 자락길,994,127.0049991,37.6240133
BE_IW43-0996,서울,성북구,정릉4동,1.2,40분,1,0,북한산 자락길,993,127.0048013,37.62371002
BE_IW43-0995,서울,성북구,정릉4동,1.2,40분,1,0,북한산 자락길,992,127.0026192,37.62276441
BE_IW43-0994,서울,마포구,성산2동,2,1시간 30분,1,0,매봉산 자락길,991,126.8970517,37.57221205
BE_IW43-0993,서울,마포구,성산2동,2,1시간 30분,1,0,매봉산 자락길,990,126.8945498,37.57313744
BE_IW43-0992,서울,마포구,상암동,2,1시간 30분,1,0,매봉산 자락길,989,126.887883,37.57029044
BE_IW43-0991,서울,마포구,성산2동,2,1시간 30분,1,0,매봉산 자락길,988,126.8951435,37.57098289
BE_IW43-0989,서울,마포구,성산2동,2,1시간 30분,1,0,매봉산 자락길,986,126.8907899,37.57565285
BE_IW43-0990,서울,마포구,성산2동,2,1시간 30분,1,0,매봉산 자락길,987,126.895562,37.57530295
BE_IW43-0986,서울,동작구,흑석동,0.5,20분,1,0,서달산 자락길,983,126.9603689,37.50132807
BE_IW43-0987,서울,동작구,사당2동,0.5,20분,1,0,서달산 자락길,984,126.9626295,37.50124298
BE_IW43-0988,서울,동작구,사당2동,0.5,20분,1,0,서달산 자락길,985,126.9660086,37.49922527
BE_IW43-0985,서울,동작구,상도1동,0.5,20분,1,0,서달산 자락길,982,126.9525463,37.49803342
BE_IW43-0980,서울,동대문구,전동2동,0.73,30분,1,0,배봉산 자락길,977,127.0616919,37.58378684
BE_IW43-0981,서울,동대문구,휘경2동,0.73,30분,1,0,배봉산 자락길,978,127.0662975,37.5914726
BE_IW43-0982,서울,동대문구,휘경2동,0.73,30분,1,0,배봉산 자락길,979,127.0627713,37.59067486
BE_IW43-0983,서울,동대문구,휘경2동,0.73,30분,1,0,배봉산 자락길,980,127.0632644,37.58740503
BE_IW43-0984,서울,동대문구,휘경2동,0.73,30분,1,0,배봉산 자락길,981,127.0664777,37.59114802
BE_IW43-0979,서울,동대문구,휘경2동,0.73,30분,1,0,배봉산 자락길,976,127.0656944,37.59194345
BE_IW43-0977,서울,강동구,고덕2동,0.7,20분,1,0,고덕산 자락길,974,127.1567548,37.56449033
BE_IW43-0978,서울,강동구,고덕2동,0.7,20분,1,0,고덕산 자락길,975,127.1567438,37.55927782
BE_IW43-0971,서울,강동구,고덕2동,0.7,20분,1,0,고덕산 자락길,968,127.1559151,37.55884742
BE_IW43-0970,서울,강동구,명일2동,0.7,20분,1,0,고덕산 자락길,967,127.1537881,37.55801298
BE_IW43-0972,서울,강동구,고덕2동,0.7,20분,1,0,고덕산 자락길,969,127.1553265,37.55936428
BE_IW43-0973,서울,강동구,고덕2동,0.7,20분,1,0,고덕산 자락길,970,127.156285,37.56145903
BE_IW43-0974,서울,강동구,고덕2동,0.7,20분,1,0,고덕산 자락길,971,127.1584336,37.56128716
BE_IW43-0975,서울,강동구,고덕2동,0.7,20분,1,0,고덕산 자락길,972,127.159106,37.5626798
BE_IW43-0976,서울,강동구,고덕2동,0.7,20분,1,0,고덕산 자락길,973,127.1559423,37.56251364
BE_IW43-1445,서울,용산구,이촌2동,8.45,3시간,1,0,용산한강길,1406,126.9576846,37.52371518
BE_IW43-1447,서울,용산구,서빙고동,8.45,3시간,1,0,용산한강길,1408,126.9891425,37.51990387
BE_IW43-1448,서울,용산구,한남동,8.45,3시간,1,0,용산한강길,1409,127.00421,37.53065485
BE_IW43-1449,서울,용산구,한남동,8.45,3시간,1,0,용산한강길,1410,127.0071655,37.53221219
BE_IW43-1450,서울,용산구,서빙고동,8.45,3시간,1,0,용산한강길,1411,126.986806,37.52223123
BE_IW43-1451,서울,용산구,서빙고동,8.45,3시간,1,0,용산한강길,1412,126.980605,37.52351556
BE_IW43-1452,서울,서초구,반포동,8.45,3시간,1,0,용산한강길,1413,126.9874775,37.5104628
BE_IW43-1453,서울,서초구,반포2동,8.45,3시간,1,0,용산한강길,1414,126.9934073,37.51467367
BE_IW43-1454,서울,용산구,이촌2동,8.45,3시간,1,0,용산한강길,1415,126.9560736,37.52053469
BE_IW43-1443,서울,마포구,도화동,8.45,3시간,1,0,용산한강길,1404,126.9437287,37.54186691
BE_IW43-1444,서울,용산구,원효로2동,8.45,3시간,1,0,용산한강길,1405,126.946864,37.53512425
BE_IW43-1446,서울,용산구,이촌1동,8.45,3시간,1,0,용산한강길,1407,126.9734531,37.51829619
BE_IW43-1442,서울,성동구,마장동,8.13,2시간,1,0,청계천길,1114,127.0410486,37.56874767
BE_IW43-1432,서울,중구,명동,8.13,2시간,1,0,청계천길,1104,126.9758399,37.57189599
BE_IW43-1433,서울,종로구,종로1.2.3.4가동,8.13,2시간,1,0,청계천길,1105,126.9818168,37.5725793
BE_IW43-1434,서울,중구,명동,8.13,2시간,1,0,청계천길,1106,126.9834034,37.57104782
BE_IW43-1435,서울,중구,을지로동,8.13,2시간,1,0,청계천길,1107,126.9902204,37.57103004
BE_IW43-1436,서울,중구,을지로동,8.13,2시간,1,0,청계천길,1108,126.9983835,37.57205606
BE_IW43-1437,서울,종로구,창신1동,8.13,2시간,1,0,청계천길,1109,127.0128691,37.57249041
BE_IW43-1438,서울,중구,황학동,8.13,2시간,1,0,청계천길,1110,127.0195503,37.57459618
BE_IW43-1439,서울,성동구,사근동,8.13,2시간,1,0,청계천길,1111,127.0414145,37.55870399
BE_IW43-1440,서울,중구,명동,8.13,2시간,1,0,청계천길,1112,126.9805902,37.56834411
BE_IW43-1441,서울,성동구,사근동,8.13,2시간,1,0,청계천길,1113,127.0485932,37.56465628
BE_IW43-0851,서울,용산구,한강로동,1.63,40분,1,0,전쟁기념관 산책길,916,126.9698686,37.53589712
BE_IW43-0852,서울,용산구,남영동,1.63,40분,1,0,전쟁기념관 산책길,917,126.9764057,37.53942336
BE_IW43-0853,서울,용산구,남영동,1.63,40분,1,0,전쟁기념관 산책길,918,126.9759754,37.53883486
BE_IW43-0846,서울,용산구,한강로동,3.3,1시간,2,0,용산 가족 산책길,911,126.9720736,37.52526754
BE_IW43-0850,서울,용산구,서빙고동,3.3,1시간,2,0,용산 가족 산책길,915,126.9802547,37.52575401
BE_IW43-0849,서울,용산구,서빙고동,3.3,1시간,2,0,용산 가족 산책길,914,126.9806361,37.52452414
BE_IW43-0848,서울,용산구,서빙고동,3.3,1시간,2,0,용산 가족 산책길,913,126.9773818,37.52526282
BE_IW43-0847,서울,용산구,서빙고동,3.3,1시간,2,0,용산 가족 산책길,912,126.977424,37.52608059
BE_IW43-0839,서울,중구,소공동,6.02,2시간,1,0,덕수궁 산책길,904,126.9742747,37.56772802
BE_IW43-0845,서울,중구,명동,6.02,2시간,1,0,덕수궁 산책길,910,126.9747108,37.57127929
BE_IW43-0844,서울,중구,소공동,6.02,2시간,1,0,덕수궁 산책길,909,126.9695653,37.57013612
BE_IW43-0837,서울,중구,명동,6.02,2시간,1,0,덕수궁 산책길,902,126.9754066,37.57192437
BE_IW43-0842,서울,종로구,사직동,6.02,2시간,1,0,덕수궁 산책길,907,126.9673042,37.57386629
BE_IW43-0843,서울,종로구,사직동,6.02,2시간,1,0,덕수궁 산책길,908,126.9674799,37.57234967
BE_IW43-0841,서울,중구,소공동,6.02,2시간,1,0,덕수궁 산책길,906,126.9732191,37.57010864
BE_IW43-0836,서울,중구,소공동,6.02,2시간,1,0,덕수궁 산책길,901,126.9718422,37.56596654
BE_IW43-0838,서울,중구,소공동,6.02,2시간,1,0,덕수궁 산책길,903,126.9721729,37.56746634
BE_IW43-0840,서울,중구,소공동,6.02,2시간,1,0,덕수궁 산책길,905,126.9748872,37.56815552
BE_IW43-0834,서울,용산구,한남동,2.29,1시간,1,0,남산 야외식물원 산책길,899,126.997379,37.54522491
BE_IW43-0832,서울,용산구,한남동,2.29,1시간,1,0,남산 야외식물원 산책길,897,126.9995431,37.54305696
BE_IW43-0835,서울,용산구,이태원2동,2.29,1시간,1,0,남산 야외식물원 산책길,900,126.9921757,37.54629396
BE_IW43-0833,서울,용산구,한남동,2.29,1시간,1,0,남산 야외식물원 산책길,898,126.9960378,37.54392529
BE_IW43-0830,서울,중구,필동,9.17,3시간,2,0,남산 순환 나들이길,895,126.9894621,37.55852434
BE_IW43-0819,서울,용산구,남영동,9.17,3시간,2,0,남산 순환 나들이길,884,126.9718357,37.55623507
BE_IW43-0820,서울,중구,명동,9.17,3시간,2,0,남산 순환 나들이길,885,126.9847391,37.56357842
BE_IW43-0821,서울,중구,필동,9.17,3시간,2,0,남산 순환 나들이길,886,126.9901094,37.56365868
BE_IW43-0822,서울,중구,장충동,9.17,3시간,2,0,남산 순환 나들이길,887,127.0013312,37.55930111
BE_IW43-0823,서울,용산구,후암동,9.17,3시간,2,0,남산 순환 나들이길,888,126.9805377,37.55522586
BE_IW43-0824,서울,용산구,후암동,9.17,3시간,2,0,남산 순환 나들이길,889,126.9827471,37.55360604
BE_IW43-0825,서울,용산구,용산2가동,9.17,3시간,2,0,남산 순환 나들이길,890,126.9861219,37.55418675
BE_IW43-0826,서울,중구,필동,9.17,3시간,2,0,남산 순환 나들이길,891,126.9892551,37.55319266
BE_IW43-0827,서울,용산구,용산2가동,9.17,3시간,2,0,남산 순환 나들이길,892,126.9880295,37.55109941
BE_IW43-0828,서울,용산구,용산2가동,9.17,3시간,2,0,남산 순환 나들이길,893,126.9891333,37.55076719
BE_IW43-0829,서울,용산구,이태원2동,9.17,3시간,2,0,남산 순환 나들이길,894,126.9903012,37.54991865
BE_IW43-0831,서울,중구,필동,9.17,3시간,2,0,남산 순환 나들이길,896,126.9841508,37.55797382
BE_IW43-0814,서울,용산구,한남동,1.88,1시간,1,0,한남매봉공원 산책길,879,127.0046407,37.53829441
BE_IW43-0815,서울,용산구,한남동,1.88,1시간,1,0,한남매봉공원 산책길,880,127.0046125,37.53825522
BE_IW43-0816,서울,성동구,옥수동,1.88,1시간,1,0,한남매봉공원 산책길,881,127.0070852,37.54336556
BE_IW43-0817,서울,용산구,한남동,1.88,1시간,1,0,한남매봉공원 산책길,882,127.0040452,37.54576818
BE_IW43-0818,서울,용산구,한남동,1.88,1시간,1,0,한남매봉공원 산책길,883,127.0011596,37.55099305
BE_IW43-1420,서울,성동구,옥수동,12.84,4시간,1,0,성동·광진구 한강길,1309,127.0267155,37.54443633
BE_IW43-1423,서울,광진구,자양4동,12.84,4시간,1,0,성동·광진구 한강길,1312,127.0643606,37.53386391
BE_IW43-1417,서울,성동구,옥수동,12.84,4시간,1,0,성동·광진구 한강길,1306,127.0164821,37.54306016
BE_IW43-1422,서울,광진구,자양4동,12.84,4시간,1,0,성동·광진구 한강길,1311,127.0569537,37.53546755
BE_IW43-1418,서울,성동구,옥수동,12.84,4시간,1,0,성동·광진구 한강길,1307,127.0171009,37.54350755
BE_IW43-1419,서울,성동구,응봉동,12.84,4시간,1,0,성동·광진구 한강길,1308,127.0321465,37.552552
BE_IW43-1421,서울,성동구,성수1가동,12.84,4시간,1,0,성동·광진구 한강길,1310,127.0341773,37.5424898
BE_IW43-1430,서울,광진구,구의3동,12.84,4시간,1,0,성동·광진구 한강길,1319,127.0928818,37.53743041
BE_IW43-1429,서울,광진구,광장동,12.84,4시간,1,0,성동·광진구 한강길,1318,127.1111858,37.55893526
BE_IW43-1428,서울,광진구,광장동,12.84,4시간,1,0,성동·광진구 한강길,1317,127.1019537,37.54333523
BE_IW43-1427,서울,광진구,구의3동,12.84,4시간,1,0,성동·광진구 한강길,1316,127.0933523,37.53601791
BE_IW43-1426,서울,광진구,자양2동,12.84,4시간,1,0,성동·광진구 한강길,1315,127.0790876,37.52960562
BE_IW43-1425,서울,광진구,자양3동,12.84,4시간,1,0,성동·광진구 한강길,1314,127.0641475,37.53323567
BE_IW43-1424,서울,광진구,자양3동,12.84,4시간,1,0,성동·광진구 한강길,1313,127.0673282,37.53189555
BE_IW43-0812,서울,광진구,능동,1.89,2시간,1,0,어린이대공원 산책길,877,127.0756652,37.55124306
BE_IW43-0813,서울,광진구,능동,1.89,2시간,1,0,어린이대공원 산책길,878,127.078252,37.55021825
BE_IW43-0811,서울,광진구,능동,1.89,2시간,1,0,어린이대공원 산책길,876,127.0757718,37.55228646
BE_IW43-0808,서울,광진구,구의2동,1.89,2시간,1,0,어린이대공원 산책길,873,127.0874899,37.55470219
BE_IW43-0807,서울,광진구,능동,1.89,2시간,1,0,어린이대공원 산책길,872,127.0729376,37.55161901
BE_IW43-0810,서울,광진구,능동,1.89,2시간,1,0,어린이대공원 산책길,875,127.078797,37.55448385
BE_IW43-0809,서울,광진구,능동,1.89,2시간,1,0,어린이대공원 산책길,874,127.0814878,37.55310254
BE_IW43-0805,서울,광진구,광장동,2.78,3시간,3,0,아차산 숲 나들이길,870,127.101443,37.55548573
BE_IW43-0806,서울,광진구,광장동,2.78,3시간,3,0,아차산 숲 나들이길,871,127.1017878,37.55516392
BE_IW43-0804,서울,광진구,구의2동,2.78,3시간,3,0,아차산 숲 나들이길,869,127.1010169,37.55718886
BE_IW43-0803,서울,광진구,구의2동,2.78,3시간,3,0,아차산 숲 나들이길,868,127.0998412,37.5562066
BE_IW43-0802,서울,광진구,광장동,2.78,3시간,3,0,아차산 숲 나들이길,867,127.0977903,37.55490015
BE_IW43-0801,서울,광진구,구의2동,2.78,3시간,3,0,아차산 숲 나들이길,866,127.0952982,37.55621289
BE_IW43-0795,서울,성동구,송정동,2.93,1시간30분,1,0,성동 송정길,944,127.0705836,37.56216358
BE_IW43-0800,서울,성동구,사근동,2.93,1시간30분,1,0,성동 송정길,949,127.0416409,37.55707639
BE_IW43-0799,서울,성동구,성수1가2동,2.93,1시간30분,1,0,성동 송정길,948,127.0445215,37.55588675
BE_IW43-0798,서울,성동구,성수1가2동,2.93,1시간30분,1,0,성동 송정길,947,127.0462345,37.55464738
BE_IW43-0797,서울,성동구,송정동,2.93,1시간30분,1,0,성동 송정길,946,127.0501748,37.55394718
BE_IW43-0796,서울,성동구,송정동,2.93,1시간30분,1,0,성동 송정길,945,127.0678261,37.55896114
BE_IW43-0794,서울,광진구,능동,2.93,1시간30분,1,0,성동 송정길,865,127.0774444,37.55986711
BE_IW43-0792,서울,성동구,성수1가동,5.22,2시간,1,0,서울숲 남산 산책길,863,127.0334807,37.54626834
BE_IW43-0793,서울,성동구,성수1가동,5.22,2시간,1,0,서울숲 남산 산책길,864,127.0327461,37.54670536
BE_IW43-0781,서울,성동구,성수1가동,5.22,2시간,1,0,서울숲 남산 산책길,852,127.0424192,37.54615156
BE_IW43-0782,서울,성동구,옥수동,5.22,2시간,1,0,서울숲 남산 산책길,853,127.0294696,37.54386116
BE_IW43-0783,서울,성동구,성수1가2동,5.22,2시간,1,0,서울숲 남산 산책길,854,127.0372988,37.54986555
BE_IW43-0785,서울,성동구,성수1가동,5.22,2시간,1,0,서울숲 남산 산책길,856,127.0407051,37.54667838
BE_IW43-0784,서울,성동구,성수1가2동,5.22,2시간,1,0,서울숲 남산 산책길,855,127.0397021,37.54919216
BE_IW43-0786,서울,성동구,성수1가동,5.22,2시간,1,0,서울숲 남산 산책길,857,127.0352852,37.54808868
BE_IW43-0787,서울,성동구,성수1가동,5.22,2시간,1,0,서울숲 남산 산책길,858,127.0353526,37.54713304
BE_IW43-0788,서울,성동구,성수1가동,5.22,2시간,1,0,서울숲 남산 산책길,859,127.0366641,37.54798114
BE_IW43-0789,서울,성동구,성수1가동,5.22,2시간,1,0,서울숲 남산 산책길,860,127.0383424,37.54831505
BE_IW43-0790,서울,성동구,성수1가동,5.22,2시간,1,0,서울숲 남산 산책길,861,127.0393536,37.54678888
BE_IW43-0791,서울,성동구,성수1가동,5.22,2시간,1,0,서울숲 남산 산책길,862,127.0391751,37.54633233
BE_IW43-0776,서울,성동구,금호1가동,8.82,3시간30분,2,0,서울숲 남산 나들이길,847,127.0196365,37.55769105
BE_IW43-0769,서울,성동구,성수1가2동,8.82,3시간30분,2,0,서울숲 남산 나들이길,840,127.0441393,37.55015405
BE_IW43-0770,서울,성동구,성수1가동,8.82,3시간30분,2,0,서울숲 남산 나들이길,841,127.0422187,37.54563334
BE_IW43-0771,서울,성동구,성수1가동,8.82,3시간30분,2,0,서울숲 남산 나들이길,842,127.0406634,37.54767075
BE_IW43-0772,서울,성동구,성수1가동,8.82,3시간30분,2,0,서울숲 남산 나들이길,843,127.0297555,37.54842904
BE_IW43-0773,서울,성동구,금호4가동,8.82,3시간30분,2,0,서울숲 남산 나들이길,844,127.0278589,37.5505326
BE_IW43-0774,서울,성동구,응봉동,8.82,3시간30분,2,0,서울숲 남산 나들이길,845,127.027082,37.55198766
BE_IW43-0775,서울,성동구,금호1가동,8.82,3시간30분,2,0,서울숲 남산 나들이길,846,127.0252883,37.55655922
BE_IW43-0777,서울,성동구,금호2.3가동,8.82,3시간30분,2,0,서울숲 남산 나들이길,848,127.0157952,37.55541855
BE_IW43-0778,서울,중구,약수동,8.82,3시간30분,2,0,서울숲 남산 나들이길,849,127.0060526,37.54753608
BE_IW43-0779,서울,용산구,한남동,8.82,3시간30분,2,0,서울숲 남산 나들이길,850,127.0014741,37.54968669
BE_IW43-0780,서울,중구,장충동,8.82,3시간30분,2,0,서울숲 남산 나들이길,851,127.0023428,37.55591689
BE_IW43-1410,서울,동대문구,용신동,3.57,1시간,1,0,정릉천길,1073,127.0327775,37.58087647
BE_IW43-1413,서울,성북구,종암동,3.57,1시간,1,0,정릉천길,1076,127.0377213,37.6040859
BE_IW43-1412,서울,동대문구,제기동,3.57,1시간,1,0,정릉천길,1075,127.0354756,37.59128897
BE_IW43-1411,서울,동대문구,제기동,3.57,1시간,1,0,정릉천길,1074,127.0347648,37.58992619
BE_IW43-1416,서울,동대문구,제기동,3.57,1시간,1,0,정릉천길,1079,127.0299225,37.58376292
BE_IW43-1415,서울,동대문구,청량리동,3.57,1시간,1,0,정릉천길,1078,127.0413602,37.59350023
BE_IW43-1414,서울,동대문구,제기동,3.57,1시간,1,0,정릉천길,1077,127.0352041,37.58190496
BE_IW43-0768,서울,성북구,월곡2동,1.83,1시간,1,0,홍릉수목원길,838,127.0423625,37.59999566
BE_IW43-0767,서울,동대문구,청량리동,1.83,1시간,1,0,홍릉수목원길,837,127.0405924,37.59440032
BE_IW43-0766,서울,동대문구,제기동,1.83,1시간,1,0,홍릉수목원길,836,127.0344141,37.59311523
BE_IW43-0763,서울,동대문구,답십리2동,3.51,2시간,2,0,배봉산 답십리 나들이길,833,127.0620939,37.57727245
BE_IW43-0760,서울,동대문구,휘경2동,3.51,2시간,2,0,배봉산 답십리 나들이길,830,127.0603362,37.59277555
BE_IW43-0759,서울,동대문구,전동2동,3.51,2시간,2,0,배봉산 답십리 나들이길,829,127.0653616,37.58144815
BE_IW43-0758,서울,동대문구,답십리2동,3.51,2시간,2,0,배봉산 답십리 나들이길,828,127.0590849,37.57573137
BE_IW43-0757,서울,동대문구,전동2동,3.51,2시간,2,0,배봉산 답십리 나들이길,827,127.0582439,37.58467521
BE_IW43-0756,서울,동대문구,전농1동,3.51,2시간,2,0,배봉산 답십리 나들이길,826,127.0514366,37.586431
BE_IW43-0762,서울,동대문구,전동2동,3.51,2시간,2,0,배봉산 답십리 나들이길,832,127.0612228,37.58120373
BE_IW43-0761,서울,동대문구,휘경2동,3.51,2시간,2,0,배봉산 답십리 나들이길,831,127.0624175,37.5873327
BE_IW43-0764,서울,동대문구,휘경2동,3.51,2시간,2,0,배봉산 답십리 나들이길,834,127.0634008,37.58562112
BE_IW43-0765,서울,동대문구,휘경2동,3.51,2시간,2,0,배봉산 답십리 나들이길,835,127.0619953,37.58987824
BE_IW43-0752,서울,중랑구,망우본동,3.73,2시간,2,0,중랑캠핑숲 나들이길,822,127.1064328,37.60839623
BE_IW43-0755,서울,중랑구,망우본동,3.73,2시간,2,0,중랑캠핑숲 나들이길,825,127.1103995,37.60816711
BE_IW43-0753,서울,중랑구,망우본동,3.73,2시간,2,0,중랑캠핑숲 나들이길,823,127.1098067,37.60161613
BE_IW43-0754,서울,중랑구,망우본동,3.73,2시간,2,0,중랑캠핑숲 나들이길,824,127.1112677,37.60731936
BE_IW43-0751,서울,중랑구,망우본동,3.73,2시간,2,0,중랑캠핑숲 나들이길,821,127.1055683,37.6090779
BE_IW43-0750,서울,중랑구,중화2동,5.68,2시간,1,0,중랑천 둔치 장미벚꽃길,820,127.0686675,37.59829581
BE_IW43-0745,서울,노원구,공릉1동,5.68,2시간,1,0,중랑천 둔치 장미벚꽃길,815,127.073189,37.62045394
BE_IW43-0746,서울,중랑구,면목7동,5.68,2시간,1,0,중랑천 둔치 장미벚꽃길,816,127.0862742,37.58325406
BE_IW43-0747,서울,중랑구,묵2동,5.68,2시간,1,0,중랑천 둔치 장미벚꽃길,817,127.0721621,37.61890917
BE_IW43-0748,서울,중랑구,묵2동,5.68,2시간,1,0,중랑천 둔치 장미벚꽃길,818,127.0710011,37.61782539
BE_IW43-0749,서울,중랑구,묵2동,5.68,2시간,1,0,중랑천 둔치 장미벚꽃길,819,127.0712952,37.60844109
BE_IW43-0742,서울,중랑구,면목7동,4.02,2시간,3,0,용마산 나들이길,812,127.0931374,37.5828598
BE_IW43-0737,서울,중랑구,면목4동,4.02,2시간,3,0,용마산 나들이길,807,127.0857114,37.57495548
BE_IW43-0738,서울,중랑구,면목4동,4.02,2시간,3,0,용마산 나들이길,808,127.091393,37.57352178
BE_IW43-0739,서울,광진구,중곡4동,4.02,2시간,3,0,용마산 나들이길,809,127.0976324,37.5756761
BE_IW43-0741,서울,중랑구,면목7동,4.02,2시간,3,0,용마산 나들이길,811,127.0972046,37.58087658
BE_IW43-0735,서울,중랑구,면목4동,4.02,2시간,3,0,용마산 나들이길,805,127.0849576,37.57670546
BE_IW43-0736,서울,중랑구,면목7동,4.02,2시간,3,0,용마산 나들이길,806,127.090509,37.58255626
BE_IW43-0731,서울,중랑구,면목3·8동,5.51,2시간30분,2,0,망구산 숲길 나들이길,801,127.1064459,37.59066639
BE_IW43-0732,서울,중랑구,망우3동,5.51,2시간30분,2,0,망구산 숲길 나들이길,802,127.108213,37.595627
BE_IW43-0730,서울,중랑구,면목3·8동,5.51,2시간30분,2,0,망구산 숲길 나들이길,800,127.0932346,37.58917232
BE_IW43-1400,서울,노원구,상계5동,2.84,2시간,1,0,당현천길,1181,127.0706193,37.66261685
BE_IW43-1408,서울,노원구,중계2·3동,2.84,2시간,1,0,당현천길,1189,127.0637491,37.65206982
BE_IW43-1409,서울,노원구,상계6·7동,2.84,2시간,1,0,당현천길,1190,127.0573111,37.64095537
BE_IW43-1405,서울,노원구,중계1동,2.84,2시간,1,0,당현천길,1186,127.0683281,37.65059628
BE_IW43-1406,서울,노원구,상계5동,2.84,2시간,1,0,당현천길,1187,127.0701871,37.66230541
BE_IW43-1407,서울,노원구,중계1동,2.84,2시간,1,0,당현천길,1188,127.0698682,37.65702454
BE_IW43-1404,서울,노원구,상계2동,2.84,2시간,1,0,당현천길,1185,127.0613266,37.65839439
BE_IW43-1403,서울,노원구,중계2·3동,2.84,2시간,1,0,당현천길,1184,127.0636247,37.64269048
BE_IW43-1402,서울,노원구,상계6·7동,2.84,2시간,1,0,당현천길,1183,127.0578879,37.64434406
BE_IW43-1401,서울,노원구,중계2·3동,2.84,2시간,1,0,당현천길,1182,127.0616692,37.64812482
BE_IW43-1392,서울,노원구,공릉2동,3.96,1시간30분,1,0,목동천길,1255,127.0825364,37.62284629
BE_IW43-1399,서울,중랑구,묵1동,3.96,1시간30분,1,0,목동천길,1262,127.084962,37.61817222
BE_IW43-1398,서울,노원구,공릉2동,3.96,1시간30분,1,0,목동천길,1261,127.0936605,37.6279076
BE_IW43-1397,서울,노원구,공릉2동,3.96,1시간30분,1,0,목동천길,1260,127.0883492,37.62417611
BE_IW43-1396,서울,중랑구,신내1동,3.96,1시간30분,1,0,목동천길,1259,127.0966938,37.617081
BE_IW43-1395,서울,중랑구,신내1동,3.96,1시간30분,1,0,목동천길,1258,127.0935877,37.61862068
BE_IW43-1394,서울,중랑구,신내2동,3.96,1시간30분,1,0,목동천길,1257,127.0892848,37.61983656
BE_IW43-1393,서울,중랑구,묵1동,3.96,1시간30분,1,0,목동천길,1256,127.085259,37.62278644
BE_IW43-1391,서울,노원구,공릉1동,3.96,1시간30분,1,0,목동천길,1254,127.0729788,37.61987079
BE_IW43-1390,서울,노원구,공릉2동,3.96,1시간30분,1,0,목동천길,1253,127.0804506,37.6221334
BE_IW43-1389,서울,중랑구,묵2동,3.96,1시간30분,1,0,목동천길,1252,127.0705478,37.61852575
BE_IW43-1388,서울,광진구,중곡2동,20.74,6시간,1,0,중랑천길,1550,127.07737,37.55992364
BE_IW43-1368,서울,노원구,상계1동,20.74,6시간,1,0,중랑천길,1086,127.0527768,37.68126117
BE_IW43-1382,서울,중랑구,면목2동,20.74,6시간,1,0,중랑천길,1101,127.0712496,37.58913246
BE_IW43-1364,서울,중랑구,중화1동,20.74,6시간,1,0,중랑천길,1082,127.0825753,37.60520673
BE_IW43-1387,서울,중랑구,중화2동,20.74,6시간,1,0,중랑천길,1549,127.0737557,37.59743514
BE_IW43-1386,서울,노원구,월계3동,20.74,6시간,1,0,중랑천길,1548,127.0569174,37.63673058
BE_IW43-1385,서울,중랑구,묵2동,20.74,6시간,1,0,중랑천길,1416,127.0709168,37.60778701
BE_IW43-1384,서울,광진구,중곡3동,20.74,6시간,1,0,중랑천길,1103,127.0753924,37.57116651
BE_IW43-1383,서울,중랑구,면목5동,20.74,6시간,1,0,중랑천길,1102,127.0762835,37.58086306
BE_IW43-1363,서울,성동구,응봉동,20.74,6시간,1,0,중랑천길,1081,127.0333474,37.55302465
BE_IW43-1362,서울,성동구,송정동,20.74,6시간,1,0,중랑천길,1080,127.0603128,37.55220452
BE_IW43-1361,서울,성동구,응봉동,20.74,6시간,1,0,중랑천길,798,127.0323921,37.55243486
BE_IW43-1381,서울,노원구,상계3·4동,20.74,6시간,1,0,중랑천길,1099,127.0920477,37.66913759
BE_IW43-1369,서울,노원구,상계1동,20.74,6시간,1,0,중랑천길,1087,127.0500383,37.68549122
BE_IW43-1370,서울,도봉구,도봉2봉,20.74,6시간,1,0,중랑천길,1088,127.0441651,37.69196538
BE_IW43-1371,서울,노원구,상계1동,20.74,6시간,1,0,중랑천길,1089,127.049041,37.68069775
BE_IW43-1372,서울,노원구,상계8동,20.74,6시간,1,0,중랑천길,1090,127.0479729,37.66994663
BE_IW43-1373,서울,노원구,상계6·7동,20.74,6시간,1,0,중랑천길,1091,127.0530322,37.65198915
BE_IW43-1374,서울,노원구,상계6·7동,20.74,6시간,1,0,중랑천길,1092,127.0542625,37.64281125
BE_IW43-1375,서울,노원구,공릉1동,20.74,6시간,1,0,중랑천길,1093,127.0653481,37.62971503
BE_IW43-1376,서울,중랑구,묵2동,20.74,6시간,1,0,중랑천길,1094,127.0700077,37.61533375
BE_IW43-1377,서울,성북구,석관동,20.74,6시간,1,0,중랑천길,1095,127.0638757,37.61764073
BE_IW43-1378,서울,노원구,공릉2동,20.74,6시간,1,0,중랑천길,1096,127.1009732,37.63743816
BE_IW43-1379,서울,노원구,공릉2동,20.74,6시간,1,0,중랑천길,1097,127.0973207,37.62673656
BE_IW43-1380,서울,강북구,번3동,20.74,6시간,1,0,중랑천길,1098,127.0375495,37.62497895
BE_IW43-1367,서울,중랑구,면목4동,20.74,6시간,1,0,중랑천길,1085,127.0879531,37.57726609
BE_IW43-1365,서울,광진구,광장동,20.74,6시간,1,0,중랑천길,1083,127.1031252,37.5576383
BE_IW43-0724,서울,도봉구,창3동,4.59,1시간30분,1,0,초안산 나들이길,938,127.0439378,37.64140206
BE_IW43-0729,서울,도봉구,창1동,4.59,1시간30분,1,0,초안산 나들이길,943,127.0415463,37.65109942
BE_IW43-0728,서울,노원구,월계2동,4.59,1시간30분,1,0,초안산 나들이길,942,127.0495346,37.64645651
BE_IW43-0727,서울,노원구,월계2동,4.59,1시간30분,1,0,초안산 나들이길,941,127.0491491,37.64153158
BE_IW43-0726,서울,노원구,월계2동,4.59,1시간30분,1,0,초안산 나들이길,940,127.0504497,37.63506962
BE_IW43-0725,서울,노원구,월계2동,4.59,1시간30분,1,0,초안산 나들이길,939,127.0446229,37.64145552
BE_IW43-0723,서울,도봉구,창3동,4.59,1시간30분,1,0,초안산 나들이길,937,127.0430408,37.64131682
BE_IW43-0722,서울,노원구,월계2동,4.59,1시간30분,1,0,초안산 나들이길,936,127.0533418,37.63133567
BE_IW43-0721,서울,도봉구,창1동,4.59,1시간30분,1,0,초안산 나들이길,935,127.0469095,37.64808548
BE_IW43-0718,서울,노원구,월계1동,1.12,1시간,1,0,월계근린공원 산책로,795,127.0553103,37.63179848
BE_IW43-0719,서울,노원구,월계1동,1.12,1시간,1,0,월계근린공원 산책로,796,127.0573912,37.62486492
BE_IW43-0720,서울,노원구,월계1동,1.12,1시간,1,0,월계근린공원 산책로,797,127.0551063,37.63053181
BE_IW43-0712,서울,노원구,상계1동,7.39,4시간30분,3,0,수락산 나들이길,789,127.053379,37.67964045
BE_IW43-0715,서울,노원구,상계1동,7.39,4시간30분,3,0,수락산 나들이길,792,127.0769564,37.69111841
BE_IW43-0716,서울,노원구,상계1동,7.39,4시간30분,3,0,수락산 나들이길,793,127.0821604,37.69304784
BE_IW43-0714,서울,노원구,상계1동,7.39,4시간30분,3,0,수락산 나들이길,791,127.0682697,37.68302546
BE_IW43-0713,서울,노원구,상계1동,7.39,4시간30분,3,0,수락산 나들이길,790,127.0535745,37.68505983
BE_IW43-0699,서울,노원구,공릉2동,9.79,3시간,2,0,불암산 나들이길,776,127.0829622,37.63095977
BE_IW43-0711,서울,노원구,공릉2동,9.79,3시간,2,0,불암산 나들이길,788,127.1007613,37.63900474
BE_IW43-0710,서울,노원구,공릉2동,9.79,3시간,2,0,불암산 나들이길,787,127.0944894,37.63781617
BE_IW43-0709,서울,노원구,공릉2동,9.79,3시간,2,0,불암산 나들이길,786,127.1054961,37.64260761
BE_IW43-0708,서울,노원구,공릉2동,9.79,3시간,2,0,불암산 나들이길,785,127.0968714,37.64349104
BE_IW43-0707,서울,노원구,공릉2동,9.79,3시간,2,0,불암산 나들이길,784,127.0971565,37.64454802
BE_IW43-0705,서울,노원구,중계본동,9.79,3시간,2,0,불암산 나들이길,782,127.0879259,37.65513398
BE_IW43-0704,서울,노원구,중계본동,9.79,3시간,2,0,불암산 나들이길,781,127.0898471,37.64767985
BE_IW43-0703,서울,노원구,공릉2동,9.79,3시간,2,0,불암산 나들이길,780,127.0894751,37.64463421
BE_IW43-0702,서울,노원구,중계본동,9.79,3시간,2,0,불암산 나들이길,779,127.0813143,37.65410443
BE_IW43-0701,서울,노원구,중계본동,9.79,3시간,2,0,불암산 나들이길,778,127.0833872,37.65165452
BE_IW43-0700,서울,노원구,중계본동,9.79,3시간,2,0,불암산 나들이길,777,127.0814281,37.64672003
BE_IW43-1360,서울,강북구,우이동,7.94,2시간,1,0,우이천길,1072,127.0091334,37.65541004
BE_IW43-1358,서울,도봉구,쌍문1동,7.94,2시간,1,0,우이천길,1070,127.0124233,37.65831746
BE_IW43-1357,서울,도봉구,창1동,7.94,2시간,1,0,우이천길,1069,127.0388736,37.65123633
BE_IW43-1356,서울,강북구,번1동,7.94,2시간,1,0,우이천길,1068,127.0239546,37.64097454
BE_IW43-1355,서울,도봉구,쌍문3동,7.94,2시간,1,0,우이천길,1067,127.03251,37.65142998
BE_IW43-1354,서울,노원구,월계2동,7.94,2시간,1,0,우이천길,1066,127.0565474,37.6342199
BE_IW43-1353,서울,성북구,석관동,7.94,2시간,1,0,우이천길,1065,127.0637029,37.61746916
BE_IW43-1352,서울,도봉구,쌍문1동,7.94,2시간,1,0,우이천길,1064,127.0126562,37.66198388
BE_IW43-1351,서울,도봉구,쌍문3동,7.94,2시간,1,0,우이천길,1063,127.0243492,37.64820843
BE_IW43-1350,서울,강북구,번1동,7.94,2시간,1,0,우이천길,1062,127.0301137,37.644681
BE_IW43-1349,서울,강북구,번1동,7.94,2시간,1,0,우이천길,1061,127.034238,37.63952738
BE_IW43-1348,서울,강북구,번2동,7.94,2시간,1,0,우이천길,1060,127.0370938,37.63538141
BE_IW43-1347,서울,노원구,월계2동,7.94,2시간,1,0,우이천길,1059,127.0464838,37.62875519
BE_IW43-1346,서울,노원구,월계1동,7.94,2시간,1,0,우이천길,1058,127.0552177,37.6202893
BE_IW43-1359,서울,강북구,인수동,7.94,2시간,1,0,우이천길,1071,127.006161,37.64272516
BE_IW43-1344,서울,강북구,인수동,0.21,20분,1,0,가오천길,1056,127.0041947,37.64081435
BE_IW43-1343,서울,강북구,번1동,0.21,20분,1,0,가오천길,1055,127.0231277,37.64033191
BE_IW43-1342,서울,강북구,인수동,0.21,20분,1,0,가오천길,1054,127.004364,37.64069647
BE_IW43-1341,서울,강북구,인수동,0.21,20분,1,0,가오천길,1053,127.0095545,37.64291769
BE_IW43-1340,서울,강북구,인수동,0.21,20분,1,0,가오천길,1052,127.0114204,37.64338508
BE_IW43-1339,서울,강북구,인수동,0.21,20분,1,0,가오천길,1051,127.0080607,37.64155089
BE_IW43-1345,서울,강북구,인수동,0.21,20분,1,0,가오천길,1057,127.006655,37.6413414
BE_IW43-1337,서울,강북구,우이동,0.67,30분,1,0,대동천길,1194,127.0073814,37.65049814
BE_IW43-1336,서울,강북구,우이동,0.67,30분,1,0,대동천길,1193,127.0031741,37.64819995
BE_IW43-1335,서울,강북구,우이동,0.67,30분,1,0,대동천길,1192,127.0060998,37.65124839
BE_IW43-1334,서울,강북구,우이동,0.67,30분,1,0,대동천길,1191,127.0049294,37.64853966
BE_IW43-1338,서울,강북구,우이동,0.67,30분,1,0,대동천길,1195,127.0069243,37.64973082
BE_IW43-1331,서울,도봉구,도봉1동,2.78,1시간,1,0,도봉천길,1215,127.0416346,37.68556358
BE_IW43-1326,서울,도봉구,도봉2봉,2.78,1시간,1,0,도봉천길,1210,127.0436955,37.68289135
BE_IW43-1327,서울,도봉구,도봉1동,2.78,1시간,1,0,도봉천길,1211,127.0419075,37.68302054
BE_IW43-1328,서울,도봉구,도봉1동,2.78,1시간,1,0,도봉천길,1212,127.0401194,37.68187586
BE_IW43-1329,서울,도봉구,도봉1동,2.78,1시간,1,0,도봉천길,1213,127.0324373,37.68017988
BE_IW43-1333,서울,도봉구,도봉1동,2.78,1시간,1,0,도봉천길,1217,127.0306749,37.68881609
BE_IW43-1332,서울,도봉구,도봉2봉,2.78,1시간,1,0,도봉천길,1216,127.0465717,37.68274895
BE_IW43-1330,서울,도봉구,도봉1동,2.78,1시간,1,0,도봉천길,1214,127.0401339,37.6867214
BE_IW43-1325,서울,도봉구,방학1동,1.89,40분,1,0,방학천길,1278,127.0422022,37.66973067
BE_IW43-1324,서울,도봉구,방학2동,1.89,40분,1,0,방학천길,1277,127.033751,37.6681162
BE_IW43-1323,서울,도봉구,방학1동,1.89,40분,1,0,방학천길,1276,127.0402983,37.66562163
BE_IW43-1322,서울,도봉구,방학1동,1.89,40분,1,0,방학천길,1275,127.0465064,37.66422888
BE_IW43-1321,서울,도봉구,쌍문2동,1.89,40분,1,0,방학천길,1274,127.0397288,37.66445323
BE_IW43-1320,서울,도봉구,방학1동,1.89,40분,1,0,방학천길,1273,127.0360856,37.6645002
BE_IW43-1319,서울,도봉구,방학3동,1.89,40분,1,0,방학천길,1272,127.0311302,37.66282278
BE_IW43-0682,서울,강북구,우이동,7.95,2시간30분,2,0,의령 나들이길,759,127.0100331,37.66633867
BE_IW43-0684,서울,강북구,우이동,7.95,2시간30분,2,0,의령 나들이길,761,127.0087486,37.66861686
BE_IW43-0685,서울,강북구,우이동,7.95,2시간30분,2,0,의령 나들이길,762,127.0012483,37.68046464
BE_IW43-0686,서울,강북구,우이동,7.95,2시간30분,2,0,의령 나들이길,763,127.0003514,37.68133355
BE_IW43-0687,서울,강북구,우이동,7.95,2시간30분,2,0,의령 나들이길,764,126.9984173,37.68333145
BE_IW43-0688,서울,강북구,우이동,7.95,2시간30분,2,0,의령 나들이길,765,126.9957586,37.68595093
BE_IW43-0681,서울,강북구,번2동,2.06,1시간,2,0,오패산 나들이길,758,127.0363781,37.63269626
BE_IW43-0677,서울,강북구,미아동,2.06,1시간,2,0,오패산 나들이길,754,127.0286903,37.63183167
BE_IW43-0676,서울,강북구,미아동,2.06,1시간,2,0,오패산 나들이길,753,127.0298466,37.63074293
BE_IW43-0673,서울,강북구,번2동,2.06,1시간,2,0,오패산 나들이길,750,127.0284304,37.63276211
BE_IW43-0674,서울,강북구,번2동,2.06,1시간,2,0,오패산 나들이길,751,127.0292028,37.6348409
BE_IW43-0675,서울,강북구,번2동,2.06,1시간,2,0,오패산 나들이길,752,127.0325924,37.63136302
BE_IW43-0678,서울,강북구,번2동,2.06,1시간,2,0,오패산 나들이길,755,127.027016,37.63649445
BE_IW43-0679,서울,강북구,미아동,2.06,1시간,2,0,오패산 나들이길,756,127.0236197,37.62970647
BE_IW43-0680,서울,강북구,번3동,2.06,1시간,2,0,오패산 나들이길,757,127.035449,37.62979775
BE_IW43-0660,서울,도봉구,방학3동,5.21,2시간 30분,2,0,쌍문 역사 산책로,922,127.0217856,37.66438918
BE_IW43-0661,서울,도봉구,방학3동,5.21,2시간 30분,2,0,쌍문 역사 산책로,923,127.0207856,37.66387018
BE_IW43-0662,서울,도봉구,방학3동,5.21,2시간 30분,2,0,쌍문 역사 산책로,924,127.020882,37.66370043
BE_IW43-0663,서울,도봉구,방학3동,5.21,2시간 30분,2,0,쌍문 역사 산책로,925,127.0209722,37.6636172
BE_IW43-0658,서울,도봉구,쌍문4동,5.21,2시간 30분,2,0,쌍문 역사 산책로,920,127.0291679,37.66226157
BE_IW43-0657,서울,도봉구,쌍문4동,5.21,2시간 30분,2,0,쌍문 역사 산책로,919,127.0302478,37.6624134
BE_IW43-0666,서울,도봉구,쌍문1동,5.21,2시간 30분,2,0,쌍문 역사 산책로,928,127.0248711,37.65489588
BE_IW43-0665,서울,도봉구,방학3동,5.21,2시간 30분,2,0,쌍문 역사 산책로,927,127.0223957,37.65898423
BE_IW43-0664,서울,도봉구,방학3동,5.21,2시간 30분,2,0,쌍문 역사 산책로,926,127.0207016,37.65890022
BE_IW43-0668,서울,도봉구,쌍문1동,5.21,2시간 30분,2,0,쌍문 역사 산책로,930,127.0259279,37.65603663
BE_IW43-0667,서울,도봉구,쌍문1동,5.21,2시간 30분,2,0,쌍문 역사 산책로,929,127.0253799,37.65555196
BE_IW43-0669,서울,도봉구,쌍문2동,5.21,2시간 30분,2,0,쌍문 역사 산책로,931,127.0308337,37.65712423
BE_IW43-0670,서울,도봉구,쌍문2동,5.21,2시간 30분,2,0,쌍문 역사 산책로,932,127.0310025,37.65765437
BE_IW43-0671,서울,도봉구,방학1동,5.21,2시간 30분,2,0,쌍문 역사 산책로,933,127.035252,37.66542326
BE_IW43-0672,서울,도봉구,쌍문2동,5.21,2시간 30분,2,0,쌍문 역사 산책로,934,127.0358851,37.65727133
BE_IW43-0659,서울,도봉구,방학3동,5.21,2시간 30분,2,0,쌍문 역사 산책로,921,127.0258977,37.66197823
BE_IW43-0643,서울,도봉구,도봉1동,6.81,3시간 30분,2,0,북한산 휴양 나들이길,736,127.0304136,37.67904798
BE_IW43-0644,서울,도봉구,도봉1동,6.81,3시간 30분,2,0,북한산 휴양 나들이길,737,127.0293028,37.67981115
BE_IW43-0645,서울,도봉구,도봉1동,6.81,3시간 30분,2,0,북한산 휴양 나들이길,738,127.0262049,37.67952412
BE_IW43-0646,서울,도봉구,도봉1동,6.81,3시간 30분,2,0,북한산 휴양 나들이길,739,127.022308,37.67845397
BE_IW43-0647,서울,도봉구,도봉1동,6.81,3시간 30분,2,0,북한산 휴양 나들이길,740,127.0200417,37.67911252
BE_IW43-0648,서울,도봉구,도봉1동,6.81,3시간 30분,2,0,북한산 휴양 나들이길,741,127.0089268,37.68562363
BE_IW43-0649,서울,강북구,우이동,6.81,3시간 30분,2,0,북한산 휴양 나들이길,742,127.0140008,37.67226006
BE_IW43-0650,서울,도봉구,방학3동,6.81,3시간 30분,2,0,북한산 휴양 나들이길,743,127.0208387,37.67131303
BE_IW43-0651,서울,도봉구,방학3동,6.81,3시간 30분,2,0,북한산 휴양 나들이길,744,127.0213488,37.67014367
BE_IW43-0652,서울,도봉구,방학3동,6.81,3시간 30분,2,0,북한산 휴양 나들이길,745,127.0247747,37.66850062
BE_IW43-0653,서울,도봉구,방학2동,6.81,3시간 30분,2,0,북한산 휴양 나들이길,746,127.0260224,37.67259167
BE_IW43-0654,서울,도봉구,도봉1동,6.81,3시간 30분,2,0,북한산 휴양 나들이길,747,127.027944,37.67696019
BE_IW43-0655,서울,도봉구,도봉2봉,6.81,3시간 30분,2,0,북한산 휴양 나들이길,748,127.0435799,37.68270971
BE_IW43-0656,서울,도봉구,방학3동,6.81,3시간 30분,2,0,북한산 휴양 나들이길,749,127.025566,37.66546953
BE_IW43-0631,서울,강북구,번3동,2.01,1시간,1,0,북서울 꿈의 숲 산책로,724,127.0424446,37.62298046
BE_IW43-0632,서울,강북구,번3동,2.01,1시간,1,0,북서울 꿈의 숲 산책로,725,127.0405917,37.62326351
BE_IW43-0636,서울,강북구,번3동,2.01,1시간,1,0,북서울 꿈의 숲 산책로,729,127.0389769,37.62519362
BE_IW43-0637,서울,강북구,번3동,2.01,1시간,1,0,북서울 꿈의 숲 산책로,730,127.038585,37.62468497
BE_IW43-0638,서울,강북구,번3동,2.01,1시간,1,0,북서울 꿈의 숲 산책로,731,127.0376333,37.62498315
BE_IW43-0639,서울,강북구,번3동,2.01,1시간,1,0,북서울 꿈의 숲 산책로,732,127.0366105,37.62582696
BE_IW43-0640,서울,강북구,번3동,2.01,1시간,1,0,북서울 꿈의 숲 산책로,733,127.0360427,37.62501371
BE_IW43-0641,서울,강북구,번3동,2.01,1시간,1,0,북서울 꿈의 숲 산책로,734,127.036532,37.62393878
BE_IW43-0642,서울,강북구,번3동,2.01,1시간,1,0,북서울 꿈의 숲 산책로,735,127.0363649,37.6228739
BE_IW43-0634,서울,강북구,번3동,2.01,1시간,1,0,북서울 꿈의 숲 산책로,727,127.0398327,37.62420965
BE_IW43-0635,서울,강북구,번3동,2.01,1시간,1,0,북서울 꿈의 숲 산책로,728,127.0395875,37.6248367
BE_IW43-0633,서울,강북구,번3동,2.01,1시간,1,0,북서울 꿈의 숲 산책로,726,127.0405536,37.62358561
BE_IW43-0620,서울,강북구,번2동,4.71,2시간,2,0,북서울 꿈의 숲 나들이길,713,127.0322021,37.62411208
BE_IW43-0622,서울,강북구,번3동,4.71,2시간,2,0,북서울 꿈의 숲 나들이길,715,127.0422861,37.62217597
BE_IW43-0623,서울,강북구,번3동,4.71,2시간,2,0,북서울 꿈의 숲 나들이길,716,127.0426706,37.62279136
BE_IW43-0624,서울,강북구,번3동,4.71,2시간,2,0,북서울 꿈의 숲 나들이길,717,127.0424021,37.62312986
BE_IW43-0625,서울,강북구,번3동,4.71,2시간,2,0,북서울 꿈의 숲 나들이길,718,127.0370127,37.62688549
BE_IW43-0626,서울,강북구,번3동,4.71,2시간,2,0,북서울 꿈의 숲 나들이길,719,127.0455248,37.62594068
BE_IW43-0627,서울,강북구,번3동,4.71,2시간,2,0,북서울 꿈의 숲 나들이길,720,127.0424747,37.6280437
BE_IW43-0628,서울,강북구,번3동,4.71,2시간,2,0,북서울 꿈의 숲 나들이길,721,127.0393985,37.62988401
BE_IW43-0629,서울,강북구,번3동,4.71,2시간,2,0,북서울 꿈의 숲 나들이길,722,127.0353404,37.62977779
BE_IW43-0630,서울,강북구,송중동,4.71,2시간,2,0,북서울 꿈의 숲 나들이길,723,127.0323623,37.62212118
BE_IW43-0621,서울,강북구,송중동,4.71,2시간,2,0,북서울 꿈의 숲 나들이길,714,127.0344466,37.62207498
BE_IW43-0619,서울,강북구,번2동,4.71,2시간,2,0,북서울 꿈의 숲 나들이길,712,127.0341249,37.62742509
BE_IW43-1307,서울,성북구,삼선동,3.62,1시간,1,0,성북천길,1322,127.0067032,37.59087979
BE_IW43-1306,서울,성북구,삼선동,3.62,1시간,1,0,성북천길,1321,127.0043549,37.5911304
BE_IW43-1308,서울,성북구,삼선동,3.62,1시간,1,0,성북천길,1323,127.0110643,37.59391102
BE_IW43-1309,서울,성북구,안암동,3.62,1시간,1,0,성북천길,1324,127.0171125,37.59108251
BE_IW43-1310,서울,성북구,보문동,3.62,1시간,1,0,성북천길,1325,127.0173239,37.58815221
BE_IW43-1311,서울,성북구,보문동,3.62,1시간,1,0,성북천길,1326,127.0194045,37.58673817
BE_IW43-1312,서울,동대문구,용신동,3.62,1시간,1,0,성북천길,1327,127.0213553,37.57854908
BE_IW43-1313,서울,종로구,이화동,3.62,1시간,1,0,성북천길,1328,127.0017665,37.58635647
BE_IW43-1314,서울,종로구,이화동,3.62,1시간,1,0,성북천길,1329,127.0020535,37.58614262
BE_IW43-1315,서울,동대문구,제기동,3.62,1시간,1,0,성북천길,1330,127.0303906,37.58375593
BE_IW43-1316,서울,종로구,이화동,3.62,1시간,1,0,성북천길,1331,127.0025452,37.58252354
BE_IW43-1317,서울,종로구,이화동,3.62,1시간,1,0,성북천길,1332,127.0020988,37.58303535
BE_IW43-1318,서울,종로구,종로5·6가동,3.62,1시간,1,0,성북천길,1333,127.0032585,37.57830114
BE_IW43-0612,서울,성북구,월곡2동,2.23,1시간,1,0,청룡산 산책로,704,127.0479128,37.60350259
BE_IW43-0613,서울,성북구,월곡2동,2.23,1시간,1,0,청룡산 산책로,705,127.0453768,37.6083531
BE_IW43-0615,서울,동대문구,이문1동,2.23,1시간,1,0,청룡산 산책로,707,127.0512528,37.60314385
BE_IW43-0616,서울,성북구,석관동,2.23,1시간,1,0,청룡산 산책로,708,127.0507428,37.60864998
BE_IW43-0617,서울,성북구,석관동,2.23,1시간,1,0,청룡산 산책로,709,127.0579188,37.60735609
BE_IW43-0618,서울,성북구,석관동,2.23,1시간,1,0,청룡산 산책로,710,127.0545429,37.60622337
BE_IW43-0614,서울,성북구,월곡2동,2.23,1시간,1,0,청룡산 산책로,706,127.0462553,37.60711849
BE_IW43-0610,서울,성북구,돈암2동,2.23,1시간30분,1,0,정릉숲길 산책로,702,127.0054993,37.60154751
BE_IW43-0605,서울,성북구,정릉2동,2.23,1시간30분,1,0,정릉숲길 산책로,697,127.0054011,37.60400313
BE_IW43-0611,서울,성북구,정릉2동,2.23,1시간30분,1,0,정릉숲길 산책로,703,127.0035477,37.60492602
BE_IW43-0609,서울,성북구,정릉2동,2.23,1시간30분,1,0,정릉숲길 산책로,701,127.0035209,37.60491167
BE_IW43-0608,서울,성북구,정릉2동,2.23,1시간30분,1,0,정릉숲길 산책로,700,127.0042336,37.60522807
BE_IW43-0607,서울,성북구,정릉2동,2.23,1시간30분,1,0,정릉숲길 산책로,699,127.0043178,37.60503928
BE_IW43-0606,서울,성북구,정릉2동,2.23,1시간30분,1,0,정릉숲길 산책로,698,127.0046883,37.60479634
BE_IW43-0604,서울,성북구,장위1동,2.02,1시간,1,0,오동 공원 산책로,696,127.0386114,37.61893798
BE_IW43-0603,서울,성북구,월곡2동,2.02,1시간,1,0,오동 공원 산책로,695,127.0456887,37.60883242
BE_IW43-0602,서울,성북구,월곡2동,2.02,1시간,1,0,오동 공원 산책로,694,127.0425216,37.61276899
BE_IW43-0601,서울,성북구,길음1동,2.49,1시간30분,1,0,북한산 능선 산책로,693,127.0153803,37.61726609
BE_IW43-0598,서울,성북구,정릉4동,2.49,1시간30분,1,0,북한산 능선 산책로,690,127.0058424,37.619948
BE_IW43-0599,서울,성북구,정릉4동,2.49,1시간30분,1,0,북한산 능선 산책로,691,127.0062332,37.61843073
BE_IW43-0600,서울,성북구,정릉4동,2.49,1시간30분,1,0,북한산 능선 산책로,692,127.0094356,37.61734021
BE_IW43-0597,서울,강북구,삼각산동,2.49,1시간30분,1,0,북한산 능선 산책로,689,127.0117478,37.61822322
BE_IW43-0587,서울,성북구,종암동,2.2,1시간30분,1,0,개운산 숲길 나들이길,679,127.0269577,37.60268517
BE_IW43-0596,서울,성북구,안암동,2.2,1시간30분,1,0,개운산 숲길 나들이길,688,127.026885,37.5926025
BE_IW43-0595,서울,성북구,종암동,2.2,1시간30분,1,0,개운산 숲길 나들이길,687,127.0300243,37.59520751
BE_IW43-0594,서울,성북구,종암동,2.2,1시간30분,1,0,개운산 숲길 나들이길,686,127.0301183,37.5977057
BE_IW43-0593,서울,성북구,종암동,2.2,1시간30분,1,0,개운산 숲길 나들이길,685,127.033482,37.59238986
BE_IW43-0592,서울,성북구,안암동,2.2,1시간30분,1,0,개운산 숲길 나들이길,684,127.0270144,37.5948976
BE_IW43-0588,서울,성북구,종암동,2.2,1시간30분,1,0,개운산 숲길 나들이길,680,127.0248373,37.60324589
BE_IW43-0591,서울,성북구,종암동,2.2,1시간30분,1,0,개운산 숲길 나들이길,683,127.0275536,37.6005328
BE_IW43-0590,서울,성북구,길음1동,2.2,1시간30분,1,0,개운산 숲길 나들이길,682,127.0225409,37.60568892
BE_IW43-0589,서울,성북구,돈암1동,2.2,1시간30분,1,0,개운산 숲길 나들이길,681,127.0243367,37.60223004
BE_IW43-0586,서울,성북구,돈암1동,2.2,1시간30분,1,0,개운산 숲길 나들이길,678,127.0262891,37.60472201
BE_IW43-0585,서울,성북구,종암동,2.2,1시간30분,1,0,개운산 숲길 나들이길,677,127.0307886,37.59405878
BE_IW43-0584,서울,성북구,종암동,2.2,1시간30분,1,0,개운산 숲길 나들이길,676,127.0241883,37.59967489
BE_IW43-0578,서울,종로구,청운효자동,3.54,1시간 30분,2,0,인왕산 나들이길,670,126.9603123,37.58834354
BE_IW43-0579,서울,종로구,부암동,3.54,1시간 30분,2,0,인왕산 나들이길,671,126.957076,37.58900479
BE_IW43-0575,서울,종로구,사직동,3.54,1시간 30분,2,0,인왕산 나들이길,667,126.9614963,37.58088132
BE_IW43-0576,서울,종로구,청운효자동,3.54,1시간 30분,2,0,인왕산 나들이길,668,126.9606406,37.58172624
BE_IW43-0574,서울,종로구,사직동,3.54,1시간 30분,2,0,인왕산 나들이길,666,126.9632281,37.57923167
BE_IW43-0577,서울,종로구,청운효자동,3.54,1시간 30분,2,0,인왕산 나들이길,669,126.9601954,37.58374071
BE_IW43-0580,서울,종로구,청운효자동,3.54,1시간 30분,2,0,인왕산 나들이길,672,126.9557503,37.58749253
BE_IW43-0581,서울,종로구,청운효자동,3.54,1시간 30분,2,0,인왕산 나들이길,673,126.9560729,37.58399665
BE_IW43-0582,서울,종로구,사직동,3.54,1시간 30분,2,0,인왕산 나들이길,674,126.9700141,37.57884669
BE_IW43-0583,서울,종로구,무악동,3.54,1시간 30분,2,0,인왕산 나들이길,675,126.9589449,37.58014454
BE_IW43-0562,서울,종로구,가회동,8.12,2시간,2,0,인사동 삼청동 나들이길,658,126.9817308,37.58512333
BE_IW43-0573,서울,종로구,종로1.2.3.4가동,8.12,2시간,2,0,인사동 삼청동 나들이길,1041,126.9814213,37.57245073
BE_IW43-0561,서울,종로구,가회동,8.12,2시간,2,0,인사동 삼청동 나들이길,657,126.9814706,37.58728253
BE_IW43-0556,서울,종로구,청운효자동,8.12,2시간,2,0,인사동 삼청동 나들이길,652,126.9715721,37.58609301
BE_IW43-0557,서울,종로구,청운효자동,8.12,2시간,2,0,인사동 삼청동 나들이길,653,126.9745103,37.5864771
BE_IW43-0558,서울,종로구,삼청동,8.12,2시간,2,0,인사동 삼청동 나들이길,654,126.979628,37.58659345
BE_IW43-0559,서울,종로구,삼청동,8.12,2시간,2,0,인사동 삼청동 나들이길,655,126.981621,37.59027253
BE_IW43-0555,서울,종로구,청운효자동,8.12,2시간,2,0,인사동 삼청동 나들이길,651,126.9729951,37.58344246
BE_IW43-0554,서울,종로구,청운효자동,8.12,2시간,2,0,인사동 삼청동 나들이길,650,126.9749633,37.58239116
BE_IW43-0553,서울,종로구,청운효자동,8.12,2시간,2,0,인사동 삼청동 나들이길,649,126.9748199,37.58123653
BE_IW43-0552,서울,종로구,청운효자동,8.12,2시간,2,0,인사동 삼청동 나들이길,648,126.9748725,37.58047334
BE_IW43-0551,서울,종로구,청운효자동,8.12,2시간,2,0,인사동 삼청동 나들이길,647,126.974855,37.57962964
BE_IW43-0560,서울,종로구,삼청동,8.12,2시간,2,0,인사동 삼청동 나들이길,656,126.982629,37.59325242
BE_IW43-0550,서울,종로구,청운효자동,8.12,2시간,2,0,인사동 삼청동 나들이길,646,126.9759344,37.57940703
BE_IW43-0549,서울,종로구,삼청동,8.12,2시간,2,0,인사동 삼청동 나들이길,645,126.9777513,37.57881931
BE_IW43-0548,서울,종로구,종로1.2.3.4가동,8.12,2시간,2,0,인사동 삼청동 나들이길,644,126.9841225,37.57571505
BE_IW43-0572,서울,종로구,종로1.2.3.4가동,8.12,2시간,2,0,인사동 삼청동 나들이길,1040,126.9828103,37.5768667
BE_IW43-0547,서울,종로구,종로1.2.3.4가동,8.12,2시간,2,0,인사동 삼청동 나들이길,643,126.9890559,37.57334076
BE_IW43-0571,서울,종로구,종로1.2.3.4가동,8.12,2시간,2,0,인사동 삼청동 나들이길,1038,126.9838764,37.57734471
BE_IW43-0570,서울,종로구,종로1.2.3.4가동,8.12,2시간,2,0,인사동 삼청동 나들이길,1037,126.98366,37.5779337
BE_IW43-0569,서울,종로구,종로1.2.3.4가동,8.12,2시간,2,0,인사동 삼청동 나들이길,665,126.9847088,37.57869764
BE_IW43-0568,서울,종로구,종로1.2.3.4가동,8.12,2시간,2,0,인사동 삼청동 나들이길,664,126.9794142,37.5766415
BE_IW43-0567,서울,종로구,청운효자동,8.12,2시간,2,0,인사동 삼청동 나들이길,663,126.9773683,37.58469042
BE_IW43-0566,서울,종로구,가회동,8.12,2시간,2,0,인사동 삼청동 나들이길,662,126.9835796,37.58026325
BE_IW43-0565,서울,종로구,사직동,8.12,2시간,2,0,인사동 삼청동 나들이길,661,126.9724513,37.57867655
BE_IW43-0564,서울,종로구,종로1.2.3.4가동,8.12,2시간,2,0,인사동 삼청동 나들이길,660,126.9890336,37.57328648
BE_IW43-0563,서울,종로구,가회동,8.12,2시간,2,0,인사동 삼청동 나들이길,659,126.9837108,37.58032914
BE_IW43-0538,서울,성북구,성북동,4.16,2시간,2,0,성북동 고택 북쪽 마을 산책로,638,126.9894933,37.59630824
BE_IW43-0546,서울,성북구,성북동,4.16,2시간,2,0,성북동 고택 북쪽 마을 산책로,1035,126.9926974,37.59778152
BE_IW43-0545,서울,성북구,성북동,4.16,2시간,2,0,성북동 고택 북쪽 마을 산책로,1034,126.9924474,37.59680959
BE_IW43-0544,서울,성북구,성북동,4.16,2시간,2,0,성북동 고택 북쪽 마을 산책로,1033,126.9947535,37.59636461
BE_IW43-0543,서울,성북구,성북동,4.16,2시간,2,0,성북동 고택 북쪽 마을 산책로,1032,126.9981976,37.59561464
BE_IW43-0542,서울,성북구,성북동,4.16,2시간,2,0,성북동 고택 북쪽 마을 산책로,642,126.9885663,37.60450985
BE_IW43-0541,서울,성북구,성북동,4.16,2시간,2,0,성북동 고택 북쪽 마을 산책로,641,126.9810573,37.60014163
BE_IW43-0540,서울,성북구,성북동,4.16,2시간,2,0,성북동 고택 북쪽 마을 산책로,640,127.003659,37.5911047
BE_IW43-0539,서울,성북구,성북동,4.16,2시간,2,0,성북동 고택 북쪽 마을 산책로,639,126.9923372,37.59804703
BE_IW43-0537,서울,성북구,성북동,4.16,2시간,2,0,성북동 고택 북쪽 마을 산책로,637,126.9918606,37.60254227
BE_IW43-0531,서울,성북구,성북동,2.79,2시간,2,0,북악 스카이 나들이 길,632,126.9808536,37.60125862
BE_IW43-0532,서울,종로구,삼청동,2.79,2시간,2,0,북악 스카이 나들이 길,633,126.9796961,37.59797502
BE_IW43-0534,서울,종로구,삼청동,2.79,2시간,2,0,북악 스카이 나들이 길,635,126.9828565,37.59416636
BE_IW43-0535,서울,종로구,삼청동,2.79,2시간,2,0,북악 스카이 나들이 길,636,126.9826041,37.59334493
BE_IW43-0536,서울,성북구,성북동,2.79,2시간,2,0,북악 스카이 나들이 길,1030,127.0036984,37.59138966
BE_IW43-0533,서울,성북구,성북동,2.79,2시간,2,0,북악 스카이 나들이 길,634,126.9836455,37.59704272
BE_IW43-0529,서울,종로구,평창동,2.79,2시간,2,0,북악 스카이 나들이 길,630,126.9837157,37.60867131
BE_IW43-0530,서울,종로구,평창동,2.79,2시간,2,0,북악 스카이 나들이 길,631,126.983782,37.60704923
BE_IW43-0525,서울,성북구,삼선동,6.96,2시간30분,2,0,북악산 고속도로 나들이길,626,127.0038647,37.59161985
BE_IW43-0526,서울,성북구,삼선동,6.96,2시간30분,2,0,북악산 고속도로 나들이길,627,127.0064174,37.59714162
BE_IW43-0517,서울,종로구,부암동,6.96,2시간30분,2,0,북악산 고속도로 나들이길,618,126.9677776,37.60007304
BE_IW43-0522,서울,성북구,성북동,6.96,2시간30분,2,0,북악산 고속도로 나들이길,623,127.0055683,37.59878912
BE_IW43-0518,서울,종로구,부암동,6.96,2시간30분,2,0,북악산 고속도로 나들이길,619,126.9684897,37.59966629
BE_IW43-0521,서울,성북구,성북동,6.96,2시간30분,2,0,북악산 고속도로 나들이길,622,127.0034042,37.59839229
BE_IW43-0519,서울,성북구,성북동,6.96,2시간30분,2,0,북악산 고속도로 나들이길,620,126.9786602,37.6041877
BE_IW43-0520,서울,성북구,성북동,6.96,2시간30분,2,0,북악산 고속도로 나들이길,621,126.9884705,37.60662748
BE_IW43-0527,서울,성북구,돈암2동,6.96,2시간30분,2,0,북악산 고속도로 나들이길,628,127.006805,37.59834165
BE_IW43-0528,서울,성북구,돈암2동,6.96,2시간30분,2,0,북악산 고속도로 나들이길,629,127.0070428,37.60095889
BE_IW43-0523,서울,성북구,돈암2동,6.96,2시간30분,2,0,북악산 고속도로 나들이길,624,127.0066159,37.59830909
BE_IW43-0524,서울,성북구,삼선동,6.96,2시간30분,2,0,북악산 고속도로 나들이길,625,127.0037523,37.59164983
BE_IW43-0508,서울,종로구,부암동,4.31,3시간,2,0,부암동 나들이길,609,126.9608306,37.5938678
BE_IW43-0510,서울,종로구,부암동,4.31,3시간,2,0,부암동 나들이길,611,126.9574733,37.58895895
BE_IW43-0511,서울,종로구,청운효자동,4.31,3시간,2,0,부암동 나들이길,612,126.9598045,37.58771682
BE_IW43-0512,서울,종로구,청운효자동,4.31,3시간,2,0,부암동 나들이길,613,126.9607532,37.58574087
BE_IW43-0513,서울,종로구,청운효자동,4.31,3시간,2,0,부암동 나들이길,614,126.9625132,37.58601829
BE_IW43-0514,서울,종로구,청운효자동,4.31,3시간,2,0,부암동 나들이길,615,126.9628428,37.58786639
BE_IW43-0515,서울,종로구,청운효자동,4.31,3시간,2,0,부암동 나들이길,616,126.9643007,37.59361261
BE_IW43-0516,서울,종로구,부암동,4.31,3시간,2,0,부암동 나들이길,617,126.9621499,37.59540418
BE_IW43-0507,서울,종로구,부암동,4.31,3시간,2,0,부암동 나들이길,608,126.961945,37.59540662
BE_IW43-0509,서울,종로구,부암동,4.31,3시간,2,0,부암동 나들이길,610,126.9567365,37.59090603
BE_IW43-0502,서울,종로구,부암동,3.06,2시간,2,0,백사실 오지여행길,603,126.9675646,37.60003667
BE_IW43-0503,서울,종로구,부암동,3.06,2시간,2,0,백사실 오지여행길,604,126.9682327,37.59982246
BE_IW43-0504,서울,종로구,부암동,3.06,2시간,2,0,백사실 오지여행길,605,126.9593668,37.60450981
BE_IW43-0505,서울,종로구,청운효자동,3.06,2시간,2,0,백사실 오지여행길,606,126.9649104,37.59498172
BE_IW43-0506,서울,종로구,부암동,3.06,2시간,2,0,백사실 오지여행길,607,126.9570758,37.60353729
BE_IW43-0500,서울,종로구,부암동,3.06,2시간,2,0,백사실 오지여행길,601,126.9626324,37.60432032
BE_IW43-0501,서울,종로구,부암동,3.06,2시간,2,0,백사실 오지여행길,602,126.9642513,37.60338871
BE_IW43-0482,서울,종로구,청운효자동,8.6,3시간30분,2,0,도심 고궁 나들이길,583,126.9773908,37.58229469
BE_IW43-0479,서울,종로구,청운효자동,8.6,3시간30분,2,0,도심 고궁 나들이길,580,126.9725282,37.57878781
BE_IW43-0480,서울,종로구,청운효자동,8.6,3시간30분,2,0,도심 고궁 나들이길,581,126.9758046,37.57942817
BE_IW43-0481,서울,종로구,청운효자동,8.6,3시간30분,2,0,도심 고궁 나들이길,582,126.9764832,37.58399683
BE_IW43-0483,서울,종로구,청운효자동,8.6,3시간30분,2,0,도심 고궁 나들이길,584,126.9772597,37.5789324
BE_IW43-0484,서울,종로구,종로1.2.3.4가동,8.6,3시간30분,2,0,도심 고궁 나들이길,585,126.9879328,37.58057805
BE_IW43-0485,서울,종로구,종로1.2.3.4가동,8.6,3시간30분,2,0,도심 고궁 나들이길,586,126.989825,37.58552421
BE_IW43-0486,서울,종로구,종로1.2.3.4가동,8.6,3시간30분,2,0,도심 고궁 나들이길,587,126.9919387,37.58554926
BE_IW43-0487,서울,종로구,종로1.2.3.4가동,8.6,3시간30분,2,0,도심 고궁 나들이길,588,126.9944514,37.58173119
BE_IW43-0488,서울,종로구,종로1.2.3.4가동,8.6,3시간30분,2,0,도심 고궁 나들이길,589,126.9944463,37.5800676
BE_IW43-0489,서울,종로구,종로1.2.3.4가동,8.6,3시간30분,2,0,도심 고궁 나들이길,590,126.995024,37.5791112
BE_IW43-0490,서울,종로구,종로1.2.3.4가동,8.6,3시간30분,2,0,도심 고궁 나들이길,591,126.9928738,37.5761
BE_IW43-0491,서울,종로구,종로1.2.3.4가동,8.6,3시간30분,2,0,도심 고궁 나들이길,592,126.993262,37.57788996
BE_IW43-0492,서울,종로구,종로1.2.3.4가동,8.6,3시간30분,2,0,도심 고궁 나들이길,593,126.9908328,37.57861244
BE_IW43-0493,서울,종로구,종로1.2.3.4가동,8.6,3시간30분,2,0,도심 고궁 나들이길,594,126.992282,37.57763995
BE_IW43-0494,서울,종로구,종로1.2.3.4가동,8.6,3시간30분,2,0,도심 고궁 나들이길,595,126.9929714,37.57389043
BE_IW43-0495,서울,종로구,종로1.2.3.4가동,8.6,3시간30분,2,0,도심 고궁 나들이길,596,126.9918732,37.57345474
BE_IW43-0496,서울,종로구,종로1.2.3.4가동,8.6,3시간30분,2,0,도심 고궁 나들이길,597,126.9917718,37.57339319
BE_IW43-0497,서울,종로구,사직동,8.6,3시간30분,2,0,도심 고궁 나들이길,598,126.9724183,37.57863941
BE_IW43-0498,서울,종로구,청운효자동,8.6,3시간30분,2,0,도심 고궁 나들이길,599,126.9717627,37.58366504
BE_IW43-0499,서울,종로구,종로1.2.3.4가동,8.6,3시간30분,2,0,도심 고궁 나들이길,600,126.9948678,37.58527033
BE_IW43-0474,서울,은평구,진관동,2.76,1시간,1,0,진관공원 나들이길,575,126.9293113,37.64873413
BE_IW43-0475,서울,은평구,진관동,2.76,1시간,1,0,진관공원 나들이길,576,126.927909,37.64865751
BE_IW43-0476,서울,은평구,진관동,2.76,1시간,1,0,진관공원 나들이길,577,126.9170459,37.64015484
BE_IW43-0477,서울,은평구,진관동,2.76,1시간,1,0,진관공원 나들이길,578,126.9258882,37.64060754
BE_IW43-0478,서울,은평구,진관동,2.76,1시간,1,0,진관공원 나들이길,579,126.9367217,37.63538726
BE_IW43-0471,서울,은평구,진관동,2.76,1시간,1,0,진관공원 나들이길,572,126.9206566,37.64002183
BE_IW43-0472,서울,은평구,진관동,2.76,1시간,1,0,진관공원 나들이길,573,126.9244026,37.64148743
BE_IW43-0473,서울,은평구,진관동,2.76,1시간,1,0,진관공원 나들이길,574,126.92574,37.64139893
BE_IW43-0445,서울,서대문구,홍제3동,13.04,4시간,3,0,탕춘대성 숲길 나들이길,548,126.9557392,37.58744402
BE_IW43-0450,서울,서대문구,홍은1동,13.04,4시간,3,0,탕춘대성 숲길 나들이길,553,126.9396257,37.59420796
BE_IW43-0449,서울,서대문구,홍제2동,13.04,4시간,3,0,탕춘대성 숲길 나들이길,552,126.9497446,37.59462873
BE_IW43-0448,서울,서대문구,홍제2동,13.04,4시간,3,0,탕춘대성 숲길 나들이길,551,126.9517801,37.59230326
BE_IW43-0447,서울,서대문구,홍제2동,13.04,4시간,3,0,탕춘대성 숲길 나들이길,550,126.952305,37.59351367
BE_IW43-0446,서울,종로구,부암동,13.04,4시간,3,0,탕춘대성 숲길 나들이길,549,126.9559402,37.59138327
BE_IW43-0444,서울,종로구,부암동,13.04,4시간,3,0,탕춘대성 숲길 나들이길,547,126.9570456,37.58897193
BE_IW43-0451,서울,은평구,녹번동,13.04,4시간,3,0,탕춘대성 숲길 나들이길,554,126.939038,37.60598568
BE_IW43-0452,서울,종로구,평창동,13.04,4시간,3,0,탕춘대성 숲길 나들이길,555,126.949213,37.61094998
BE_IW43-0453,서울,종로구,부암동,13.04,4시간,3,0,탕춘대성 숲길 나들이길,556,126.9516426,37.60487813
BE_IW43-0454,서울,종로구,부암동,13.04,4시간,3,0,탕춘대성 숲길 나들이길,557,126.9554114,37.60255484
BE_IW43-0455,서울,종로구,부암동,13.04,4시간,3,0,탕춘대성 숲길 나들이길,558,126.9627837,37.60422346
BE_IW43-0456,서울,종로구,부암동,13.04,4시간,3,0,탕춘대성 숲길 나들이길,559,126.9643107,37.60336373
BE_IW43-0457,서울,서대문구,홍제2동,13.04,4시간,3,0,탕춘대성 숲길 나들이길,560,126.9409162,37.59280317
BE_IW43-0458,서울,은평구,녹번동,13.04,4시간,3,0,탕춘대성 숲길 나들이길,561,126.935252,37.60378043
BE_IW43-0459,서울,종로구,평창동,13.04,4시간,3,0,탕춘대성 숲길 나들이길,562,126.9551686,37.60680485
BE_IW43-0460,서울,서대문구,홍은1동,13.04,4시간,3,0,탕춘대성 숲길 나들이길,563,126.9419894,37.60225375
BE_IW43-0461,서울,종로구,부암동,13.04,4시간,3,0,탕춘대성 숲길 나들이길,1551,126.9559316,37.60241135
BE_IW43-0435,서울,서대문구,연희동,2.23,3시간,1,0,안산 나들이길,538,126.9393716,37.58218087
BE_IW43-0436,서울,서대문구,연희동,2.23,3시간,1,0,안산 나들이길,539,126.9394557,37.58117022
BE_IW43-0437,서울,서대문구,연희동,2.23,3시간,1,0,안산 나들이길,540,126.9396375,37.58067565
BE_IW43-0438,서울,서대문구,연희동,2.23,3시간,1,0,안산 나들이길,541,126.9401143,37.57963542
BE_IW43-0439,서울,서대문구,연희동,2.23,3시간,1,0,안산 나들이길,542,126.940642,37.57840443
BE_IW43-0443,서울,서대문구,홍제1동,2.23,3시간,1,0,안산 나들이길,546,126.9480847,37.58482563
BE_IW43-0442,서울,서대문구,연희동,2.23,3시간,1,0,안산 나들이길,545,126.9339064,37.58168572
BE_IW43-0441,서울,서대문구,신촌동,2.23,3시간,1,0,안산 나들이길,544,126.9419389,37.57719737
BE_IW43-0440,서울,서대문구,신촌동,2.23,3시간,1,0,안산 나들이길,543,126.9414155,37.57736174
BE_IW43-0433,서울,서대문구,연희동,2.23,3시간,1,0,안산 나들이길,536,126.938434,37.58279468
BE_IW43-0434,서울,서대문구,연희동,2.23,3시간,1,0,안산 나들이길,537,126.9397514,37.58279845
BE_IW43-0429,서울,서대문구,홍은2동,5.09,3시간,2,0,백련산 나들이길,533,126.92362,37.58924871
BE_IW43-0428,서울,서대문구,홍은2동,5.09,3시간,2,0,백련산 나들이길,532,126.9364226,37.59983797
BE_IW43-0427,서울,서대문구,홍은2동,5.09,3시간,2,0,백련산 나들이길,531,126.9282177,37.58614869
BE_IW43-0426,서울,은평구,응암2동,5.09,3시간,2,0,백련산 나들이길,530,126.9256699,37.59143932
BE_IW43-0425,서울,서대문구,홍은2동,5.09,3시간,2,0,백련산 나들이길,529,126.9256806,37.59299956
BE_IW43-0424,서울,은평구,응암2동,5.09,3시간,2,0,백련산 나들이길,528,126.9255954,37.59378613
BE_IW43-0423,서울,서대문구,홍은2동,5.09,3시간,2,0,백련산 나들이길,526,126.9320431,37.59929691
BE_IW43-0422,서울,서대문구,홍은2동,5.09,3시간,2,0,백련산 나들이길,525,126.9366469,37.59539576
BE_IW43-0421,서울,서대문구,홍은2동,5.09,3시간,2,0,백련산 나들이길,524,126.9381276,37.5938072
BE_IW43-0432,서울,서대문구,홍은2동,5.09,3시간,2,0,백련산 나들이길,1487,126.9279916,37.58578816
BE_IW43-0431,서울,서대문구,홍은2동,5.09,3시간,2,0,백련산 나들이길,535,126.9315723,37.59156289
BE_IW43-0430,서울,서대문구,홍은2동,5.09,3시간,2,0,백련산 나들이길,534,126.9256463,37.58861903
BE_IW43-0417,서울,서대문구,천연동,3.8,2시간,2,0,독립공원 안산 나들이길,520,126.9565248,37.57636403
BE_IW43-0416,서울,서대문구,천연동,3.8,2시간,2,0,독립공원 안산 나들이길,519,126.9558754,37.57158537
BE_IW43-0415,서울,서대문구,천연동,3.8,2시간,2,0,독립공원 안산 나들이길,518,126.9512003,37.5724474
BE_IW43-0414,서울,서대문구,천연동,3.8,2시간,2,0,독립공원 안산 나들이길,517,126.954088,37.57589427
BE_IW43-0420,서울,서대문구,천연동,3.8,2시간,2,0,독립공원 안산 나들이길,523,126.9577222,37.57502086
BE_IW43-0419,서울,서대문구,천연동,3.8,2시간,2,0,독립공원 안산 나들이길,522,126.957673,37.57506803
BE_IW43-0418,서울,서대문구,천연동,3.8,2시간,2,0,독립공원 안산 나들이길,521,126.954202,37.57722033
BE_IW43-1299,서울,마포구,합정동,13.07,4시간,1,0,마포한강길,1232,126.9138063,37.54565553
BE_IW43-1294,서울,마포구,상암동,13.07,4시간,1,0,마포한강길,1227,126.863988,37.57640498
BE_IW43-1295,서울,마포구,상암동,13.07,4시간,1,0,마포한강길,1228,126.8693078,37.57214955
BE_IW43-1296,서울,마포구,상암동,13.07,4시간,1,0,마포한강길,1229,126.8837918,37.56404749
BE_IW43-1297,서울,마포구,망원1동,13.07,4시간,1,0,마포한강길,1230,126.8979722,37.55476221
BE_IW43-1305,서울,마포구,상암동,13.07,4시간,1,0,마포한강길,1488,126.8727046,37.57166669
BE_IW43-1304,서울,마포구,도화동,13.07,4시간,1,0,마포한강길,1238,126.945039,37.54345328
BE_IW43-1303,서울,마포구,성산2동,13.07,4시간,1,0,마포한강길,1236,126.8970706,37.57185937
BE_IW43-1302,서울,마포구,용강동,13.07,4시간,1,0,마포한강길,1235,126.9391168,37.54051207
BE_IW43-1301,서울,마포구,서강동,13.07,4시간,1,0,마포한강길,1234,126.9280535,37.54561321
BE_IW43-1300,서울,영등포구,여의동,13.07,4시간,1,0,마포한강길,1233,126.9241743,37.54298947
BE_IW43-1298,서울,마포구,합정동,13.07,4시간,1,0,마포한강길,1231,126.9033561,37.55064514
BE_IW43-1283,서울,서대문구,연희동,7.81,2시간,1,0,홍제천길,1132,126.9343508,37.58211186
BE_IW43-1281,서울,서대문구,남가좌1동,7.81,2시간,1,0,홍제천길,1130,126.9164785,37.57248765
BE_IW43-1280,서울,마포구,성산2동,7.81,2시간,1,0,홍제천길,1129,126.9097392,37.56830241
BE_IW43-1279,서울,마포구,성산2동,7.81,2시간,1,0,홍제천길,1128,126.9010007,37.56570916
BE_IW43-1278,서울,마포구,성산1동,7.81,2시간,1,0,홍제천길,1127,126.9017891,37.56555328
BE_IW43-1277,서울,마포구,성산2동,7.81,2시간,1,0,홍제천길,1126,126.8944173,37.56339774
BE_IW43-1282,서울,서대문구,연희동,7.81,2시간,1,0,홍제천길,1131,126.9287015,37.58063757
BE_IW43-1290,서울,서대문구,남가좌1동,7.81,2시간,1,0,홍제천길,1140,126.9133948,37.57149163
BE_IW43-1289,서울,서대문구,홍제1동,7.81,2시간,1,0,홍제천길,1139,126.9423244,37.591112
BE_IW43-1288,서울,서대문구,홍은1동,7.81,2시간,1,0,홍제천길,1138,126.9517309,37.5992969
BE_IW43-1287,서울,서대문구,홍제2동,7.81,2시간,1,0,홍제천길,1137,126.9468208,37.6009574
BE_IW43-1286,서울,서대문구,홍은2동,7.81,2시간,1,0,홍제천길,1136,126.9370656,37.59298606
BE_IW43-1285,서울,서대문구,홍은2동,7.81,2시간,1,0,홍제천길,1135,126.9348811,37.58529758
BE_IW43-1284,서울,서대문구,연희동,7.81,2시간,1,0,홍제천길,1133,126.940707,37.58131487
BE_IW43-1268,서울,마포구,성산2동,4.43,2시간,1,0,불광천길,1284,126.8974515,37.56905006
BE_IW43-1266,서울,은평구,신사2동,4.43,2시간,1,0,불광천길,1282,126.9113662,37.59300843
BE_IW43-1265,서울,은평구,증산동,4.43,2시간,1,0,불광천길,1281,126.9082481,37.58717817
BE_IW43-1270,서울,마포구,상암동,4.43,2시간,1,0,불광천길,1286,126.8990159,37.57788002
BE_IW43-1263,서울,마포구,성산2동,4.43,2시간,1,0,불광천길,1279,126.8972609,37.57210766
BE_IW43-1264,서울,마포구,상암동,4.43,2시간,1,0,불광천길,1280,126.8991407,37.57833425
BE_IW43-1269,서울,마포구,성산2동,4.43,2시간,1,0,불광천길,1285,126.897678,37.5725155
BE_IW43-1267,서울,은평구,신사1동,4.43,2시간,1,0,불광천길,1283,126.9136189,37.60160546
BE_IW43-1271,서울,서대문구,북가좌2동,4.43,2시간,1,0,불광천길,1287,126.908525,37.58731323
BE_IW43-1272,서울,은평구,응암3동,4.43,2시간,1,0,불광천길,1288,126.9115471,37.59284747
BE_IW43-1273,서울,은평구,응암1동,4.43,2시간,1,0,불광천길,1289,126.9137678,37.60136806
BE_IW43-1274,서울,서대문구,북가좌2동,4.43,2시간,1,0,불광천길,1290,126.9065415,37.58517307
BE_IW43-1275,서울,마포구,성산2동,4.43,2시간,1,0,불광천길,1291,126.8991428,37.56877884
BE_IW43-1276,서울,은평구,신사2동,4.43,2시간,1,0,불광천길,1292,126.9090418,37.59515855
BE_IW43-0409,서울,마포구,서강동,3.12,2시간,2,0,홍익대학교 예술의 거리 나들이길,507,126.9290924,37.55037085
BE_IW43-0410,서울,마포구,서교동,3.12,2시간,2,0,홍익대학교 예술의 거리 나들이길,508,126.9253954,37.55973947
BE_IW43-0408,서울,마포구,서강동,3.12,2시간,2,0,홍익대학교 예술의 거리 나들이길,506,126.9221493,37.55330932
BE_IW43-0412,서울,마포구,서강동,3.12,2시간,2,0,홍익대학교 예술의 거리 나들이길,510,126.9209791,37.55062025
BE_IW43-0400,서울,마포구,서강동,3.12,2시간,2,0,홍익대학교 예술의 거리 나들이길,498,126.9262731,37.55116232
BE_IW43-0401,서울,마포구,서강동,3.12,2시간,2,0,홍익대학교 예술의 거리 나들이길,499,126.9253836,37.55229517
BE_IW43-0402,서울,마포구,서강동,3.12,2시간,2,0,홍익대학교 예술의 거리 나들이길,500,126.9270698,37.55432437
BE_IW43-0403,서울,마포구,서강동,3.12,2시간,2,0,홍익대학교 예술의 거리 나들이길,501,126.9273032,37.55580204
BE_IW43-0404,서울,마포구,서교동,3.12,2시간,2,0,홍익대학교 예술의 거리 나들이길,502,126.9261371,37.55805813
BE_IW43-0405,서울,마포구,서교동,3.12,2시간,2,0,홍익대학교 예술의 거리 나들이길,503,126.9214055,37.55796791
BE_IW43-0406,서울,마포구,서교동,3.12,2시간,2,0,홍익대학교 예술의 거리 나들이길,504,126.9212382,37.5564847
BE_IW43-0407,서울,마포구,서교동,3.12,2시간,2,0,홍익대학교 예술의 거리 나들이길,505,126.9215387,37.55505765
BE_IW43-0411,서울,마포구,서교동,3.12,2시간,2,0,홍익대학교 예술의 거리 나들이길,509,126.9208811,37.55886625
BE_IW43-0413,서울,마포구,서강동,3.12,2시간,2,0,홍익대학교 예술의 거리 나들이길,511,126.9267901,37.55262743
BE_IW43-0389,서울,마포구,상암동,19.29,4시간30분,3,0,월드컵공원 나들이길,487,126.8950595,37.57582325
BE_IW43-0399,서울,마포구,성산2동,19.29,4시간30분,3,0,월드컵공원 나들이길,497,126.8951363,37.570747
BE_IW43-0397,서울,마포구,상암동,19.29,4시간30분,3,0,월드컵공원 나들이길,495,126.8783885,37.57447667
BE_IW43-0398,서울,마포구,상암동,19.29,4시간30분,3,0,월드컵공원 나들이길,496,126.8765092,37.57214754
BE_IW43-0396,서울,마포구,성산2동,19.29,4시간30분,3,0,월드컵공원 나들이길,494,126.8971112,37.57180518
BE_IW43-0395,서울,마포구,성산2동,19.29,4시간30분,3,0,월드컵공원 나들이길,493,126.8966638,37.57332396
BE_IW43-0394,서울,마포구,상암동,19.29,4시간30분,3,0,월드컵공원 나들이길,492,126.8901677,37.56749883
BE_IW43-0393,서울,마포구,상암동,19.29,4시간30분,3,0,월드컵공원 나들이길,491,126.8813367,37.57262828
BE_IW43-0392,서울,마포구,상암동,19.29,4시간30분,3,0,월드컵공원 나들이길,490,126.8771105,37.57059315
BE_IW43-0391,서울,마포구,상암동,19.29,4시간30분,3,0,월드컵공원 나들이길,489,126.8731782,37.57760055
BE_IW43-0390,서울,마포구,상암동,19.29,4시간30분,3,0,월드컵공원 나들이길,488,126.883908,37.5750215
BE_IW43-0388,서울,마포구,성산2동,19.29,4시간30분,3,0,월드컵공원 나들이길,486,126.8962678,37.57512012
BE_IW43-0379,서울,마포구,대흥동,6.14,2시간30분,2,0,신촌대학교 나들이길,477,126.9400417,37.55630817
BE_IW43-0378,서울,마포구,대흥동,6.14,2시간30분,2,0,신촌대학교 나들이길,476,126.9356203,37.55429599
BE_IW43-0387,서울,서대문구,신촌동,6.14,2시간30분,2,0,신촌대학교 나들이길,485,126.9397193,37.56240413
BE_IW43-0386,서울,서대문구,신촌동,6.14,2시간30분,2,0,신촌대학교 나들이길,484,126.9349535,37.55837461
BE_IW43-0385,서울,마포구,대흥동,6.14,2시간30분,2,0,신촌대학교 나들이길,483,126.9396346,37.5508514
BE_IW43-0384,서울,서대문구,신촌동,6.14,2시간30분,2,0,신촌대학교 나들이길,482,126.934883,37.56334356
BE_IW43-0383,서울,서대문구,신촌동,6.14,2시간30분,2,0,신촌대학교 나들이길,481,126.9437598,37.56919726
BE_IW43-0382,서울,서대문구,신촌동,6.14,2시간30분,2,0,신촌대학교 나들이길,480,126.9477777,37.5710084
BE_IW43-0381,서울,서대문구,신촌동,6.14,2시간30분,2,0,신촌대학교 나들이길,479,126.9436589,37.56171415
BE_IW43-0380,서울,마포구,대흥동,6.14,2시간30분,2,0,신촌대학교 나들이길,478,126.9421478,37.5534767
BE_IW43-0377,서울,마포구,성산2동,4.62,2시간,2,0,상암산 DMC 체험 나들이길,475,126.8969396,37.5733524
BE_IW43-0376,서울,마포구,상암동,4.62,2시간,2,0,상암산 DMC 체험 나들이길,474,126.8979689,37.57851219
BE_IW43-0375,서울,마포구,성산2동,4.62,2시간,2,0,상암산 DMC 체험 나들이길,473,126.8970041,37.57472439
BE_IW43-0374,서울,마포구,상암동,4.62,2시간,2,0,상암산 DMC 체험 나들이길,472,126.8952135,37.57589145
BE_IW43-0373,서울,마포구,상암동,4.62,2시간,2,0,상암산 DMC 체험 나들이길,471,126.8939824,37.57685389
BE_IW43-0372,서울,마포구,상암동,4.62,2시간,2,0,상암산 DMC 체험 나들이길,470,126.8920739,37.57731898
BE_IW43-0371,서울,마포구,상암동,4.62,2시간,2,0,상암산 DMC 체험 나들이길,469,126.8888272,37.57711988
BE_IW43-0370,서울,마포구,상암동,4.62,2시간,2,0,상암산 DMC 체험 나들이길,468,126.8838883,37.58053141
BE_IW43-0366,서울,마포구,상암동,4.62,2시간,2,0,상암산 DMC 체험 나들이길,464,126.8900034,37.58142464
BE_IW43-0369,서울,마포구,상암동,4.62,2시간,2,0,상암산 DMC 체험 나들이길,467,126.8812939,37.58237148
BE_IW43-0368,서울,마포구,상암동,4.62,2시간,2,0,상암산 DMC 체험 나들이길,466,126.8813794,37.58607059
BE_IW43-0367,서울,마포구,상암동,4.62,2시간,2,0,상암산 DMC 체험 나들이길,465,126.8870972,37.58376512
BE_IW43-1254,서울,강서구,방화2동,9.35,2시간30분,1,0,굴포천(대두덕천),1174,126.7965875,37.58754481
BE_IW43-1256,서울,강서구,공항동,9.35,2시간30분,1,0,굴포천(대두덕천),1176,126.7771418,37.56526193
BE_IW43-1257,서울,강서구,공항동,9.35,2시간30분,1,0,굴포천(대두덕천),1177,126.7791939,37.55323004
BE_IW43-1260,서울,강서구,방화2동,9.35,2시간30분,1,0,굴포천(대두덕천),1180,126.7963135,37.58555889
BE_IW43-1261,서울,강서구,공항동,9.35,2시간30분,1,0,굴포천(대두덕천),1417,126.7670126,37.55956405
BE_IW43-1262,서울,강서구,방화2동,9.35,2시간30분,1,0,굴포천(대두덕천),1418,126.7957701,37.58125943
BE_IW43-1247,서울,강서구,가양1동,8.91,3시간,1,0,강서한강길,1161,126.8391632,37.57888023
BE_IW43-1249,서울,강서구,염창동,8.91,3시간,1,0,강서한강길,1163,126.8705837,37.55973823
BE_IW43-1252,서울,강서구,방화2동,8.91,3시간,1,0,강서한강길,1166,126.809749,37.58593108
BE_IW43-1251,서울,강서구,가양1동,8.91,3시간,1,0,강서한강길,1165,126.8376179,37.57583109
BE_IW43-1240,서울,강서구,방화3동,8.91,3시간,1,0,강서한강길,1154,126.8101666,37.58021514
BE_IW43-1241,서울,강서구,가양1동,8.91,3시간,1,0,강서한강길,1155,126.8391547,37.57112864
BE_IW43-1242,서울,강서구,등촌3동,8.91,3시간,1,0,강서한강길,1156,126.8529462,37.56371489
BE_IW43-1250,서울,강서구,방화3동,8.91,3시간,1,0,강서한강길,1164,126.8054224,37.58266929
BE_IW43-1253,서울,강서구,등촌3동,8.91,3시간,1,0,강서한강길,1167,126.8483717,37.5621638
BE_IW43-1244,서울,강서구,방화2동,8.91,3시간,1,0,강서한강길,1158,126.8061742,37.59339872
BE_IW43-1245,서울,강서구,방화3동,8.91,3시간,1,0,강서한강길,1159,126.816304,37.58891794
BE_IW43-1246,서울,강서구,방화3동,8.91,3시간,1,0,강서한강길,1160,126.821436,37.58593811
BE_IW43-1248,서울,강서구,가양2동,8.91,3시간,1,0,강서한강길,1162,126.8566219,37.56877706
BE_IW43-0365,서울,강서구,우장산동,2.51,1시간 50분,1,0,우장산 공원 산책로,956,126.834457,37.55182346
BE_IW43-0361,서울,강서구,우장산동,2.51,1시간 50분,1,0,우장산 공원 산책로,460,126.8387981,37.55523621
BE_IW43-0362,서울,강서구,우장산동,2.51,1시간 50분,1,0,우장산 공원 산책로,461,126.8402224,37.55190553
BE_IW43-0363,서울,강서구,우장산동,2.51,1시간 50분,1,0,우장산 공원 산책로,462,126.8421233,37.55576241
BE_IW43-0364,서울,강서구,우장산동,2.51,1시간 50분,1,0,우장산 공원 산책로,463,126.8418165,37.55611288
BE_IW43-0355,서울,강서구,등촌2동,2.61,1시간30분,1,0,봉제산 숲 나들이길,456,126.8556787,37.54906031
BE_IW43-0356,서울,강서구,등촌2동,2.61,1시간30분,1,0,봉제산 숲 나들이길,457,126.8563475,37.55138971
BE_IW43-0357,서울,강서구,화곡6동,2.61,1시간30분,1,0,봉제산 숲 나들이길,458,126.8519844,37.55189541
BE_IW43-0358,서울,강서구,화곡6동,2.61,1시간30분,1,0,봉제산 숲 나들이길,459,126.8542168,37.55378242
BE_IW43-0359,서울,강서구,등촌2동,2.61,1시간30분,1,0,봉제산 숲 나들이길,954,126.8615687,37.55410155
BE_IW43-0360,서울,강서구,화곡8동,2.61,1시간30분,1,0,봉제산 숲 나들이길,955,126.8445851,37.53484788
BE_IW43-0344,서울,강서구,화곡4동,2.61,1시간30분,1,0,봉제산 숲 나들이길,445,126.8541014,37.54519563
BE_IW43-0343,서울,강서구,화곡본동,2.61,1시간30분,1,0,봉제산 숲 나들이길,444,126.8525978,37.54439501
BE_IW43-0342,서울,강서구,화곡본동,2.61,1시간30분,1,0,봉제산 숲 나들이길,443,126.8500639,37.54210855
BE_IW43-0341,서울,강서구,화곡4동,2.61,1시간30분,1,0,봉제산 숲 나들이길,442,126.8496436,37.53938551
BE_IW43-0345,서울,강서구,화곡6동,2.61,1시간30분,1,0,봉제산 숲 나들이길,446,126.8532534,37.55430883
BE_IW43-0346,서울,강서구,화곡6동,2.61,1시간30분,1,0,봉제산 숲 나들이길,447,126.8547529,37.55423754
BE_IW43-0347,서울,강서구,등촌2동,2.61,1시간30분,1,0,봉제산 숲 나들이길,448,126.8564372,37.55514391
BE_IW43-0348,서울,강서구,화곡4동,2.61,1시간30분,1,0,봉제산 숲 나들이길,449,126.853231,37.5405497
BE_IW43-0350,서울,강서구,화곡4동,2.61,1시간30분,1,0,봉제산 숲 나들이길,451,126.856678,37.54193739
BE_IW43-0349,서울,강서구,화곡4동,2.61,1시간30분,1,0,봉제산 숲 나들이길,450,126.8545291,37.5412835
BE_IW43-0351,서울,강서구,등촌2동,2.61,1시간30분,1,0,봉제산 숲 나들이길,452,126.8608094,37.54128992
BE_IW43-0352,서울,강서구,화곡본동,2.61,1시간30분,1,0,봉제산 숲 나들이길,453,126.8488555,37.54496462
BE_IW43-0353,서울,강서구,화곡본동,2.61,1시간30분,1,0,봉제산 숲 나들이길,454,126.8482324,37.54706324
BE_IW43-0354,서울,강서구,화곡6동,2.61,1시간30분,1,0,봉제산 숲 나들이길,455,126.8496802,37.54985772
BE_IW43-0339,서울,강서구,방화2동,7.74,2시간40분,2,0,개화산 나들이길,440,126.7979486,37.58412219
BE_IW43-0340,서울,강서구,방화2동,7.74,2시간40분,2,0,개화산 나들이길,441,126.8002205,37.58911045
BE_IW43-0328,서울,강서구,방화2동,7.74,2시간40분,2,0,개화산 나들이길,429,126.8023706,37.58101652
BE_IW43-0329,서울,강서구,방화2동,7.74,2시간40분,2,0,개화산 나들이길,430,126.8021334,37.58416671
BE_IW43-0330,서울,강서구,방화2동,7.74,2시간40분,2,0,개화산 나들이길,431,126.7998824,37.58484837
BE_IW43-0331,서울,강서구,방화2동,7.74,2시간40분,2,0,개화산 나들이길,432,126.7995496,37.5855328
BE_IW43-0332,서울,강서구,방화2동,7.74,2시간40분,2,0,개화산 나들이길,433,126.8038028,37.58600679
BE_IW43-0333,서울,강서구,방화3동,7.74,2시간40분,2,0,개화산 나들이길,434,126.8098847,37.58561308
BE_IW43-0334,서울,강서구,방화3동,7.74,2시간40분,2,0,개화산 나들이길,435,126.8145126,37.58230695
BE_IW43-0335,서울,강서구,방화3동,7.74,2시간40분,2,0,개화산 나들이길,436,126.8176633,37.58417913
BE_IW43-0336,서울,강서구,방화1동,7.74,2시간40분,2,0,개화산 나들이길,437,126.8039802,37.57539224
BE_IW43-0337,서울,강서구,방화2동,7.74,2시간40분,2,0,개화산 나들이길,438,126.8007688,37.58054624
BE_IW43-0338,서울,강서구,방화2동,7.74,2시간40분,2,0,개화산 나들이길,439,126.8011342,37.58324444
BE_IW43-0322,서울,강서구,가양1동,2.51,1시간30분,1,0,강서문화산책로,424,126.8372291,37.57755303
BE_IW43-0321,서울,강서구,가양1동,2.51,1시간30분,1,0,강서문화산책로,423,126.8363864,37.57536266
BE_IW43-0320,서울,강서구,가양1동,2.51,1시간30분,1,0,강서문화산책로,422,126.8377425,37.57580799
BE_IW43-0327,서울,강서구,가양1동,2.51,1시간30분,1,0,강서문화산책로,957,126.8391683,37.57172839
BE_IW43-0326,서울,강서구,가양2동,2.51,1시간30분,1,0,강서문화산책로,428,126.8481541,37.57069506
BE_IW43-0325,서울,강서구,가양2동,2.51,1시간30분,1,0,강서문화산책로,427,126.850874,37.57078297
BE_IW43-0324,서울,강서구,가양1동,2.51,1시간30분,1,0,강서문화산책로,426,126.8421315,37.57630989
BE_IW43-0323,서울,강서구,가양1동,2.51,1시간30분,1,0,강서문화산책로,425,126.8390354,37.57724726
BE_IW43-0312,서울,양천구,신정3동,6.9,3시간,2,0,구로 지양산 숲길 나들이길,414,126.8290824,37.50934888
BE_IW43-0313,서울,양천구,신정3동,6.9,3시간,2,0,구로 지양산 숲길 나들이길,415,126.8325339,37.5063753
BE_IW43-0314,서울,양천구,신월7동,6.9,3시간,2,0,구로 지양산 숲길 나들이길,416,126.8291642,37.52221853
BE_IW43-0315,서울,양천구,신월7동,6.9,3시간,2,0,구로 지양산 숲길 나들이길,417,126.8301614,37.51900627
BE_IW43-0317,서울,양천구,신월7동,6.9,3시간,2,0,구로 지양산 숲길 나들이길,419,126.8249936,37.51891792
BE_IW43-0319,서울,구로구,수궁동,6.9,3시간,2,0,구로 지양산 숲길 나들이길,421,126.8270364,37.50394727
BE_IW43-0318,서울,구로구,개봉1동,6.9,3시간,2,0,구로 지양산 숲길 나들이길,420,126.8418864,37.50333681
BE_IW43-0305,서울,양천구,신월7동,6.9,3시간,2,0,구로 지양산 숲길 나들이길,407,126.8277989,37.52496695
BE_IW43-0306,서울,양천구,신월7동,6.9,3시간,2,0,구로 지양산 숲길 나들이길,408,126.8230147,37.52113574
BE_IW43-0307,서울,구로구,수궁동,6.9,3시간,2,0,구로 지양산 숲길 나들이길,409,126.8206647,37.50983586
BE_IW43-0308,서울,구로구,수궁동,6.9,3시간,2,0,구로 지양산 숲길 나들이길,410,126.8208901,37.50883577
BE_IW43-0309,서울,구로구,수궁동,6.9,3시간,2,0,구로 지양산 숲길 나들이길,411,126.8199483,37.50752486
BE_IW43-0310,서울,구로구,수궁동,6.9,3시간,2,0,구로 지양산 숲길 나들이길,412,126.8192186,37.49599129
BE_IW43-0311,서울,구로구,수궁동,6.9,3시간,2,0,구로 지양산 숲길 나들이길,413,126.8208979,37.49527096
BE_IW43-0299,서울,구로구,개봉3동,1.5,1시간,1,0,개웅산 숲길 산책로,401,126.8466369,37.49264428
BE_IW43-0298,서울,구로구,개봉3동,1.5,1시간,1,0,개웅산 숲길 산책로,400,126.8479627,37.49159173
BE_IW43-0300,서울,구로구,개봉3동,1.5,1시간,1,0,개웅산 숲길 산책로,402,126.8452278,37.49099816
BE_IW43-0301,서울,구로구,오류2동,1.5,1시간,1,0,개웅산 숲길 산책로,403,126.8427856,37.49679894
BE_IW43-0302,서울,구로구,개봉3동,1.5,1시간,1,0,개웅산 숲길 산책로,404,126.8500968,37.48885794
BE_IW43-0303,서울,구로구,개봉3동,1.5,1시간,1,0,개웅산 숲길 산책로,405,126.8518207,37.48644026
BE_IW43-0304,서울,구로구,개봉3동,1.5,1시간,1,0,개웅산 숲길 산책로,406,126.8463181,37.48950559
BE_IW43-1237,서울,구로구,오류2동,3.71,1시간,1,0,목감천,1249,126.8363335,37.4897956
BE_IW43-1238,서울,구로구,고척1동,3.71,1시간,1,0,목감천,1250,126.8625264,37.50024302
BE_IW43-1239,서울,구로구,오류2동,3.71,1시간,1,0,목감천,1251,126.8426229,37.49480765
BE_IW43-1232,서울,구로구,개봉3동,3.71,1시간,1,0,목감천,1244,126.85729,37.49093564
BE_IW43-0289,서울,양천구,목2동,2.63,1시간30분,1,0,용왕산 나들이길,391,126.8723905,37.54519379
BE_IW43-0288,서울,양천구,목2동,2.63,1시간30분,1,0,용왕산 나들이길,390,126.8711677,37.5448115
BE_IW43-0287,서울,양천구,목2동,2.63,1시간30분,1,0,용왕산 나들이길,389,126.8713868,37.54373837
BE_IW43-0297,서울,양천구,목2동,2.63,1시간30분,1,0,용왕산 나들이길,399,126.8712662,37.54102034
BE_IW43-0296,서울,양천구,목2동,2.63,1시간30분,1,0,용왕산 나들이길,398,126.8805365,37.54721521
BE_IW43-0292,서울,양천구,목2동,2.63,1시간30분,1,0,용왕산 나들이길,394,126.8748631,37.54511528
BE_IW43-0291,서울,양천구,목2동,2.63,1시간30분,1,0,용왕산 나들이길,393,126.8761565,37.54668364
BE_IW43-0290,서울,양천구,목2동,2.63,1시간30분,1,0,용왕산 나들이길,392,126.8738011,37.54565368
BE_IW43-0286,서울,양천구,목2동,2.63,1시간30분,1,0,용왕산 나들이길,388,126.8710073,37.54170398
BE_IW43-0295,서울,양천구,목2동,2.63,1시간30분,1,0,용왕산 나들이길,397,126.8777788,37.54881755
BE_IW43-0294,서울,양천구,목2동,2.63,1시간30분,1,0,용왕산 나들이길,396,126.8770141,37.54758882
BE_IW43-0293,서울,양천구,목2동,2.63,1시간30분,1,0,용왕산 나들이길,395,126.8773911,37.54603879
BE_IW43-0284,서울,양천구,신월3동,0.96,30분,1,0,서서울 호수공원 산책로,386,126.8306225,37.5317748
BE_IW43-0283,서울,양천구,신월3동,0.96,30분,1,0,서서울 호수공원 산책로,385,126.8288506,37.52891192
BE_IW43-0285,서울,양천구,신월7동,0.96,30분,1,0,서서울 호수공원 산책로,387,126.8302979,37.52726131
BE_IW43-0272,서울,양천구,목2동,0.59,30분,1,0,달마을공원 산책로,375,126.86698,37.54614254
BE_IW43-0271,서울,양천구,목2동,0.59,30분,1,0,달마을공원 산책로,374,126.8671831,37.54604371
BE_IW43-0282,서울,양천구,목2동,0.59,30분,1,0,달마을공원 산책로,953,126.8717273,37.54946534
BE_IW43-0281,서울,양천구,목3동,0.59,30분,1,0,달마을공원 산책로,384,126.8652574,37.54512234
BE_IW43-0280,서울,양천구,목3동,0.59,30분,1,0,달마을공원 산책로,383,126.8641383,37.54601326
BE_IW43-0279,서울,양천구,목2동,0.59,30분,1,0,달마을공원 산책로,382,126.8673821,37.54708953
BE_IW43-0278,서울,양천구,목2동,0.59,30분,1,0,달마을공원 산책로,381,126.8662152,37.54548974
BE_IW43-0277,서울,양천구,목2동,0.59,30분,1,0,달마을공원 산책로,380,126.8656547,37.54577231
BE_IW43-0276,서울,양천구,목2동,0.59,30분,1,0,달마을공원 산책로,379,126.8655045,37.54633577
BE_IW43-0275,서울,양천구,목2동,0.59,30분,1,0,달마을공원 산책로,378,126.866386,37.54632849
BE_IW43-0274,서울,양천구,목2동,0.59,30분,1,0,달마을공원 산책로,377,126.8669063,37.54651321
BE_IW43-0273,서울,양천구,목2동,0.59,30분,1,0,달마을공원 산책로,376,126.8669836,37.54630626
BE_IW43-1225,서울,동작구,사당2동,21.1,8시간,1,0,영등포 동작구 한강길,1399,126.9731424,37.50610362
BE_IW43-1224,서울,동작구,사당2동,21.1,8시간,1,0,영등포 동작구 한강길,1398,126.9737832,37.50761616
BE_IW43-1223,서울,동작구,노량진1동,21.1,8시간,1,0,영등포 동작구 한강길,1397,126.9558026,37.5161498
BE_IW43-1228,서울,영등포구,당산2동,21.1,8시간,1,0,영등포 동작구 한강길,1402,126.9004674,37.53745503
BE_IW43-1222,서울,영등포구,신길7동,21.1,8시간,1,0,영등포 동작구 한강길,1396,126.9244528,37.51618181
BE_IW43-1221,서울,영등포구,여의동,21.1,8시간,1,0,영등포 동작구 한강길,1395,126.9301271,37.53014122
BE_IW43-1220,서울,영등포구,여의동,21.1,8시간,1,0,영등포 동작구 한강길,1394,126.9109186,37.52892103
BE_IW43-1219,서울,영등포구,양평2동,21.1,8시간,1,0,영등포 동작구 한강길,1393,126.8941927,37.54556705
BE_IW43-1227,서울,영등포구,당산1동,21.1,8시간,1,0,영등포 동작구 한강길,1401,126.8976653,37.52913071
BE_IW43-1218,서울,영등포구,양평2동,21.1,8시간,1,0,영등포 동작구 한강길,1392,126.8769115,37.55611037
BE_IW43-1226,서울,영등포구,양평2동,21.1,8시간,1,0,영등포 동작구 한강길,1400,126.8981846,37.54612997
BE_IW43-1229,서울,동작구,흑석동,21.1,8시간,1,0,영등포 동작구 한강길,1403,126.961436,37.51130586
BE_IW43-1231,서울,영등포구,신길7동,21.1,8시간,1,0,영등포 동작구 한강길,1554,126.9240505,37.51603269
BE_IW43-1230,서울,영등포구,신길7동,21.1,8시간,1,0,영등포 동작구 한강길,1553,126.9240505,37.51603269
BE_IW43-1203,서울,양천구,목1동,15.57,4시간30분,1,0,안양천길,1362,126.8763927,37.52805342
BE_IW43-1202,서울,양천구,목1동,15.57,4시간30분,1,0,안양천길,1361,126.8799576,37.53408926
BE_IW43-1201,서울,양천구,목5동,15.57,4시간30분,1,0,안양천길,1360,126.8851918,37.53408311
BE_IW43-1200,서울,양천구,목5동,15.57,4시간30분,1,0,안양천길,1359,126.8844996,37.54164523
BE_IW43-1199,서울,양천구,목5동,15.57,4시간30분,1,0,안양천길,1358,126.8835067,37.54129718
BE_IW43-1198,서울,강서구,염창동,15.57,4시간30분,1,0,안양천길,1357,126.8773729,37.55085605
BE_IW43-1197,서울,영등포구,양평2동,15.57,4시간30분,1,0,안양천길,1356,126.880184,37.55128284
BE_IW43-1209,서울,구로구,구로1동,15.57,4시간30분,1,0,안양천길,1368,126.8694858,37.49983362
BE_IW43-1217,서울,양천구,목5동,15.57,4시간30분,1,0,안양천길,1547,126.8811277,37.5471133
BE_IW43-1214,서울,금천구,독산1동,15.57,4시간30분,1,0,안양천길,1373,126.88236,37.46778265
BE_IW43-1213,서울,금천구,독산1동,15.57,4시간30분,1,0,안양천길,1372,126.8874036,37.46854034
BE_IW43-1210,서울,구로구,신도림동,15.57,4시간30분,1,0,안양천길,1369,126.8803579,37.51727656
BE_IW43-1208,서울,구로구,구로2동,15.57,4시간30분,1,0,안양천길,1367,126.867034,37.49937116
BE_IW43-1207,서울,양천구,신정7동,15.57,4시간30분,1,0,안양천길,1366,126.8706813,37.5107865
BE_IW43-1206,서울,양천구,신정7동,15.57,4시간30분,1,0,안양천길,1365,126.8679099,37.51212821
BE_IW43-1205,서울,구로구,신도림동,15.57,4시간30분,1,0,안양천길,1364,126.8761072,37.51767551
BE_IW43-1204,서울,양천구,목1동,15.57,4시간30분,1,0,안양천길,1363,126.8743456,37.52712291
BE_IW43-0267,서울,영등포구,대림1동,3.84,1시간30분,1,0,영등포 봄꽃 나들이길,370,126.9062148,37.49888377
BE_IW43-0266,서울,영등포구,신길5동,3.84,1시간30분,1,0,영등포 봄꽃 나들이길,369,126.9037559,37.50247333
BE_IW43-0265,서울,영등포구,문래동,3.84,1시간30분,1,0,영등포 봄꽃 나들이길,368,126.8905594,37.51186493
BE_IW43-0270,서울,영등포구,문래동,3.84,1시간30분,1,0,영등포 봄꽃 나들이길,373,126.8917088,37.5193966
BE_IW43-0269,서울,영등포구,신길6동,3.84,1시간30분,1,0,영등포 봄꽃 나들이길,372,126.9076325,37.50277419
BE_IW43-0268,서울,구로구,신도림동,3.84,1시간30분,1,0,영등포 봄꽃 나들이길,371,126.8807295,37.51733215
BE_IW43-0260,서울,영등포구,여의동,2.82,1시간30분,1,0,여의도 공원 산책로,363,126.9171623,37.52761686
BE_IW43-0263,서울,영등포구,여의동,2.82,1시간30분,1,0,여의도 공원 산책로,366,126.916508,37.53067057
BE_IW43-0261,서울,영등포구,여의동,2.82,1시간30분,1,0,여의도 공원 산책로,364,126.9159515,37.52526807
BE_IW43-0259,서울,영등포구,여의동,2.82,1시간30분,1,0,여의도 공원 산책로,362,126.9237669,37.53046286
BE_IW43-0258,서울,영등포구,여의동,2.82,1시간30분,1,0,여의도 공원 산책로,361,126.9267856,37.53197471
BE_IW43-0264,서울,영등포구,여의동,2.82,1시간30분,1,0,여의도 공원 산책로,367,126.9218694,37.52506619
BE_IW43-0262,서울,영등포구,여의동,2.82,1시간30분,1,0,여의도 공원 산책로,365,126.9145772,37.52423774
BE_IW43-1186,서울,구로구,구로4동,10.56,3시간30분,1,0,도림천길,1201,126.8916142,37.49946007
BE_IW43-1188,서울,구로구,구로3동,10.56,3시간30분,1,0,도림천길,1203,126.898638,37.4883282
BE_IW43-1189,서울,관악구,신사동,10.56,3시간30분,1,0,도림천길,1204,126.9142442,37.49202884
BE_IW43-1190,서울,관악구,신림동,10.56,3시간30분,1,0,도림천길,1205,126.9275607,37.48714365
BE_IW43-1191,서울,관악구,신원동,10.56,3시간30분,1,0,도림천길,1206,126.9241361,37.48641498
BE_IW43-1192,서울,관악구,서원동,10.56,3시간30분,1,0,도림천길,1207,126.9344039,37.480061
BE_IW43-1193,서울,관악구,서림동,10.56,3시간30분,1,0,도림천길,1208,126.9407329,37.47359922
BE_IW43-1194,서울,관악구,대학동,10.56,3시간30분,1,0,도림천길,1209,126.950416,37.46600114
BE_IW43-1195,서울,구로구,신도림동,10.56,3시간30분,1,0,도림천길,1419,126.8803331,37.51718994
BE_IW43-1196,서울,관악구,대학동,10.56,3시간30분,1,0,도림천길,1552,126.9457514,37.46960637
BE_IW43-1181,서울,구로구,구로5동,10.56,3시간30분,1,0,도림천길,1196,126.8895667,37.51058209
BE_IW43-1182,서울,영등포구,문래동,10.56,3시간30분,1,0,도림천길,1197,126.8919282,37.52025279
BE_IW43-1183,서울,구로구,신도림동,10.56,3시간30분,1,0,도림천길,1198,126.8875977,37.51436823
BE_IW43-1184,서울,영등포구,여의동,10.56,3시간30분,1,0,도림천길,1199,126.9380694,37.52235521
BE_IW43-1185,서울,영등포구,대림2동,10.56,3시간30분,1,0,도림천길,1200,126.8948818,37.4955017
BE_IW43-1187,서울,구로구,구로3동,10.56,3시간30분,1,0,도림천길,1202,126.898732,37.48794966
BE_IW43-0257,서울,금천구,시흥2동,3.95,3시간,3,0,호암산 나들이길,360,126.9205096,37.44907462
BE_IW43-0247,서울,금천구,시흥5동,3.95,3시간,3,0,호암산 나들이길,350,126.9094122,37.45313319
BE_IW43-0248,서울,금천구,시흥2동,3.95,3시간,3,0,호암산 나들이길,351,126.9190671,37.45538233
BE_IW43-0249,서울,금천구,시흥5동,3.95,3시간,3,0,호암산 나들이길,352,126.9080166,37.44941173
BE_IW43-0250,서울,금천구,시흥5동,3.95,3시간,3,0,호암산 나들이길,353,126.9125075,37.44704507
BE_IW43-0251,서울,금천구,시흥5동,3.95,3시간,3,0,호암산 나들이길,354,126.9155385,37.44836459
BE_IW43-0252,서울,금천구,시흥2동,3.95,3시간,3,0,호암산 나들이길,355,126.9168075,37.44833031
BE_IW43-0253,서울,금천구,시흥2동,3.95,3시간,3,0,호암산 나들이길,356,126.9201596,37.44645779
BE_IW43-0255,서울,관악구,삼성동,3.95,3시간,3,0,호암산 나들이길,358,126.9292566,37.45420355
BE_IW43-0256,서울,관악구,삼성동,3.95,3시간,3,0,호암산 나들이길,359,126.9238286,37.45562596
BE_IW43-0240,서울,관악구,청룡동,5.87,1시간 50분,1,0,청룡산 나들이길,343,126.9490527,37.47951191
BE_IW43-0241,서울,관악구,청룡동,5.87,1시간 50분,1,0,청룡산 나들이길,344,126.9487996,37.47903122
BE_IW43-0242,서울,관악구,청룡동,5.87,1시간 50분,1,0,청룡산 나들이길,345,126.9486328,37.47858295
BE_IW43-0243,서울,관악구,청룡동,5.87,1시간 50분,1,0,청룡산 나들이길,346,126.9466932,37.47691402
BE_IW43-0244,서울,관악구,서림동,5.87,1시간 50분,1,0,청룡산 나들이길,347,126.9472186,37.47393171
BE_IW43-0245,서울,관악구,중앙동,5.87,1시간 50분,1,0,청룡산 나들이길,348,126.9505722,37.48397873
BE_IW43-0246,서울,관악구,낙석대동,5.87,1시간 50분,1,0,청룡산 나들이길,349,126.9561845,37.47516006
BE_IW43-0236,서울,금천구,시흥4동,5.61,3시간,1,0,독산 삼성산 나들이길,340,126.911558,37.46431619
BE_IW43-0237,서울,금천구,독산4동,5.61,3시간,1,0,독산 삼성산 나들이길,341,126.9052108,37.47322086
BE_IW43-0238,서울,금천구,독산4동,5.61,3시간,1,0,독산 삼성산 나들이길,342,126.9060232,37.47031691
BE_IW43-0239,서울,금천구,독산4동,5.61,3시간,1,0,독산 삼성산 나들이길,1486,126.9048601,37.47340078
BE_IW43-0228,서울,금천구,시흥2동,5.61,3시간,1,0,독산 삼성산 나들이길,332,126.9224141,37.45572088
BE_IW43-0230,서울,관악구,미성동,5.61,3시간,1,0,독산 삼성산 나들이길,334,126.9090229,37.47483111
BE_IW43-0231,서울,금천구,시흥4동,5.61,3시간,1,0,독산 삼성산 나들이길,335,126.9048574,37.46533856
BE_IW43-0232,서울,관악구,미성동,5.61,3시간,1,0,독산 삼성산 나들이길,336,126.9126267,37.47604394
BE_IW43-0233,서울,관악구,난곡동,5.61,3시간,1,0,독산 삼성산 나들이길,337,126.9178008,37.47398886
BE_IW43-0234,서울,관악구,난향동,5.61,3시간,1,0,독산 삼성산 나들이길,338,126.9121445,37.46640591
BE_IW43-0235,서울,관악구,난향동,5.61,3시간,1,0,독산 삼성산 나들이길,339,126.9128479,37.46419761
BE_IW43-0225,서울,금천구,독산4동,5.61,3시간,1,0,독산 삼성산 나들이길,329,126.9083119,37.4710603
BE_IW43-0226,서울,금천구,독산4동,5.61,3시간,1,0,독산 삼성산 나들이길,330,126.9077782,37.46999628
BE_IW43-0227,서울,관악구,난향동,5.61,3시간,1,0,독산 삼성산 나들이길,331,126.9153572,37.45997233
BE_IW43-0229,서울,금천구,독산3동,5.61,3시간,1,0,독산 삼성산 나들이길,333,126.9093166,37.47981593
BE_IW43-0223,서울,금천구,독산4동,5.61,3시간,1,0,독산 삼성산 나들이길,327,126.9066304,37.47184985
BE_IW43-0224,서울,관악구,미성동,5.61,3시간,1,0,독산 삼성산 나들이길,328,126.9079921,37.4716152
BE_IW43-0219,서울,관악구,낙석대동,1.22,40분,1,0,낙성대 산책로,324,126.9591545,37.47343624
BE_IW43-0220,서울,관악구,낙석대동,1.22,40분,1,0,낙성대 산책로,325,126.9576537,37.47433812
BE_IW43-0221,서울,관악구,낙석대동,1.22,40분,1,0,낙성대 산책로,326,126.9581624,37.47227622
BE_IW43-0222,서울,관악구,낙석대동,1.22,40분,1,0,낙성대 산책로,952,126.9567422,37.47499982
BE_IW43-0216,서울,관악구,남현동,0.81,40분,1,0,관음사 산책로,322,126.9745785,37.47010532
BE_IW43-0218,서울,관악구,남현동,0.81,40분,1,0,관음사 산책로,951,126.9793905,37.4786901
BE_IW43-0217,서울,관악구,남현동,0.81,40분,1,0,관음사 산책로,323,126.9754236,37.46968956
BE_IW43-0210,서울,관악구,삼성동,6.99,3시간,2,0,관악산 나들이길,316,126.9247458,37.4631936
BE_IW43-0212,서울,관악구,삼성동,6.99,3시간,2,0,관악산 나들이길,318,126.9276618,37.46148227
BE_IW43-0213,서울,관악구,삼성동,6.99,3시간,2,0,관악산 나들이길,319,126.9316438,37.46121833
BE_IW43-0201,서울,관악구,대학동,6.99,3시간,2,0,관악산 나들이길,307,126.9363381,37.46683794
BE_IW43-0205,서울,관악구,대학동,6.99,3시간,2,0,관악산 나들이길,311,126.9396189,37.46317817
BE_IW43-0206,서울,관악구,대학동,6.99,3시간,2,0,관악산 나들이길,312,126.9347652,37.46306742
BE_IW43-0207,서울,관악구,삼성동,6.99,3시간,2,0,관악산 나들이길,313,126.9306885,37.46197681
BE_IW43-0208,서울,관악구,삼성동,6.99,3시간,2,0,관악산 나들이길,314,126.9297784,37.46527064
BE_IW43-0209,서울,관악구,삼성동,6.99,3시간,2,0,관악산 나들이길,315,126.924809,37.45797912
BE_IW43-0211,서울,관악구,대학동,6.99,3시간,2,0,관악산 나들이길,317,126.9360755,37.46806591
BE_IW43-0203,서울,관악구,대학동,6.99,3시간,2,0,관악산 나들이길,309,126.9438509,37.47136271
BE_IW43-0202,서울,관악구,대학동,6.99,3시간,2,0,관악산 나들이길,308,126.9422603,37.4694694
BE_IW43-0214,서울,관악구,삼성동,6.99,3시간,2,0,관악산 나들이길,320,126.9325587,37.46175982
BE_IW43-0215,서울,관악구,대학동,6.99,3시간,2,0,관악산 나들이길,321,126.9405421,37.46047478
BE_IW43-0204,서울,관악구,대학동,6.99,3시간,2,0,관악산 나들이길,310,126.9408448,37.46417698
BE_IW43-0197,서울,관악구,대학동,5.58,2시간,2,0,관악산 계곡 나들이길,303,126.9450233,37.44987591
BE_IW43-0196,서울,관악구,대학동,5.58,2시간,2,0,관악산 계곡 나들이길,302,126.9449491,37.46110254
BE_IW43-0195,서울,관악구,대학동,5.58,2시간,2,0,관악산 계곡 나들이길,301,126.9469193,37.46623968
BE_IW43-0199,서울,관악구,대학동,5.58,2시간,2,0,관악산 계곡 나들이길,305,126.9456752,37.44331116
BE_IW43-0200,서울,관악구,대학동,5.58,2시간,2,0,관악산 계곡 나들이길,306,126.9467994,37.46402647
BE_IW43-0198,서울,관악구,대학동,5.58,2시간,2,0,관악산 계곡 나들이길,304,126.9453872,37.44572192
BE_IW43-0192,서울,관악구,남현동,3.53,1시간30분,1,0,동작충효길(7코스_까치산길),298,126.9787843,37.47918142
BE_IW43-0189,서울,동작구,사당5동,3.53,1시간30분,1,0,동작충효길(7코스_까치산길),295,126.9599232,37.48592238
BE_IW43-0194,서울,동작구,사당5동,3.53,1시간30분,1,0,동작충효길(7코스_까치산길),300,126.9622947,37.48656817
BE_IW43-0191,서울,동작구,상도1동,3.53,1시간30분,1,0,동작충효길(7코스_까치산길),297,126.9597969,37.49657868
BE_IW43-0188,서울,동작구,사당4동,3.53,1시간30분,1,0,동작충효길(7코스_까치산길),294,126.9654501,37.4807959
BE_IW43-0187,서울,동작구,사당4동,3.53,1시간30분,1,0,동작충효길(7코스_까치산길),293,126.9674399,37.47938148
BE_IW43-0186,서울,관악구,남현동,3.53,1시간30분,1,0,동작충효길(7코스_까치산길),292,126.9688463,37.47809959
BE_IW43-0185,서울,관악구,남현동,3.53,1시간30분,1,0,동작충효길(7코스_까치산길),291,126.977331,37.47933139
BE_IW43-0193,서울,동작구,사당5동,3.53,1시간30분,1,0,동작충효길(7코스_까치산길),299,126.9674818,37.48793804
BE_IW43-0190,서울,관악구,청림동,3.53,1시간30분,1,0,동작충효길(7코스_까치산길),296,126.9586956,37.49310419
BE_IW43-0184,서울,관악구,성현동,4.58,2시간,2,0,동작충효길(6코스_동작마루길),290,126.9430334,37.49494721
BE_IW43-0183,서울,동작구,상도1동,4.58,2시간,2,0,동작충효길(6코스_동작마루길),289,126.9526428,37.49811924
BE_IW43-0182,서울,동작구,대방동,4.58,2시간,2,0,동작충효길(6코스_동작마루길),288,126.9264021,37.50247155
BE_IW43-0181,서울,동작구,상도1동,4.58,2시간,2,0,동작충효길(6코스_동작마루길),287,126.9601243,37.49701056
BE_IW43-0180,서울,동작구,상도1동,4.58,2시간,2,0,동작충효길(6코스_동작마루길),285,126.9540001,37.49463451
BE_IW43-0179,서울,동작구,상도1동,4.58,2시간,2,0,동작충효길(6코스_동작마루길),284,126.951815,37.49382158
BE_IW43-0178,서울,동작구,상도1동,4.58,2시간,2,0,동작충효길(6코스_동작마루길),283,126.9456716,37.49655629
BE_IW43-0177,서울,동작구,상도4동,4.58,2시간,2,0,동작충효길(6코스_동작마루길),282,126.943681,37.49626283
BE_IW43-0176,서울,동작구,상도4동,4.58,2시간,2,0,동작충효길(6코스_동작마루길),281,126.9417369,37.49574058
BE_IW43-0175,서울,동작구,상도3동,4.58,2시간,2,0,동작충효길(6코스_동작마루길),280,126.9342392,37.49605168
BE_IW43-0174,서울,동작구,상도3동,4.58,2시간,2,0,동작충효길(6코스_동작마루길),279,126.9312937,37.49828438
BE_IW43-0173,서울,동작구,대방동,2.5,1시간30분,2,0,동작충효길(5코스_보라매길),278,126.9184146,37.50256371
BE_IW43-0170,서울,동작구,신대방2동,2.5,1시간30분,2,0,동작충효길(5코스_보라매길),275,126.9208193,37.49728092
BE_IW43-0171,서울,동작구,신대방2동,2.5,1시간30분,2,0,동작충효길(5코스_보라매길),276,126.9167771,37.50011485
BE_IW43-0172,서울,동작구,대방동,2.5,1시간30분,2,0,동작충효길(5코스_보라매길),277,126.9262124,37.50244964
BE_IW43-0168,서울,동작구,신대방2동,2.5,1시간30분,2,0,동작충효길(5코스_보라매길),273,126.925545,37.49815153
BE_IW43-0169,서울,관악구,보라매동,2.5,1시간30분,2,0,동작충효길(5코스_보라매길),274,126.9251738,37.49678497
BE_IW43-0160,서울,동작구,대방동,3.73,1시간30분,2,0,동작충효길(4코스_노량진길),265,126.92626,37.50937742
BE_IW43-0159,서울,동작구,대방동,3.73,1시간30분,2,0,동작충효길(4코스_노량진길),264,126.9246696,37.5115587
BE_IW43-0158,서울,동작구,대방동,3.73,1시간30분,2,0,동작충효길(4코스_노량진길),263,126.9279976,37.51448665
BE_IW43-0157,서울,동작구,대방동,3.73,1시간30분,2,0,동작충효길(4코스_노량진길),262,126.9317049,37.51616198
BE_IW43-0156,서울,동작구,노량진1동,3.73,1시간30분,2,0,동작충효길(4코스_노량진길),261,126.9407144,37.51817785
BE_IW43-0167,서울,동작구,상도2동,3.73,1시간30분,2,0,동작충효길(4코스_노량진길),272,126.9307809,37.50662073
BE_IW43-0166,서울,동작구,대방동,3.73,1시간30분,2,0,동작충효길(4코스_노량진길),271,126.9293916,37.50789244
BE_IW43-0165,서울,동작구,대방동,3.73,1시간30분,2,0,동작충효길(4코스_노량진길),270,126.9254236,37.50557867
BE_IW43-0164,서울,동작구,노량진1동,3.73,1시간30분,2,0,동작충효길(4코스_노량진길),269,126.9409497,37.51679993
BE_IW43-0163,서울,동작구,상도3동,3.73,1시간30분,2,0,동작충효길(4코스_노량진길),268,126.9284957,37.50268228
BE_IW43-0162,서울,동작구,상도3동,3.73,1시간30분,2,0,동작충효길(4코스_노량진길),267,126.9285688,37.50454164
BE_IW43-0161,서울,동작구,대방동,3.73,1시간30분,2,0,동작충효길(4코스_노량진길),266,126.9276951,37.50696548
BE_IW43-0150,서울,동작구,노량진1동,3.96,2시간,2,0,동작충효길(3코스_한강나들이길),255,126.9452978,37.51656252
BE_IW43-0153,서울,동작구,흑석동,3.96,2시간,2,0,동작충효길(3코스_한강나들이길),258,126.9609634,37.51366549
BE_IW43-0152,서울,동작구,노량진1동,3.96,2시간,2,0,동작충효길(3코스_한강나들이길),257,126.9533639,37.51578548
BE_IW43-0151,서울,동작구,노량진1동,3.96,2시간,2,0,동작충효길(3코스_한강나들이길),256,126.9523134,37.51604491
BE_IW43-0154,서울,동작구,사당2동,3.96,2시간,2,0,동작충효길(3코스_한강나들이길),259,126.9774614,37.50621613
BE_IW43-0155,서울,동작구,노량진1동,3.96,2시간,2,0,동작충효길(3코스_한강나들이길),260,126.9412746,37.51669589
BE_IW43-0144,서울,동작구,사당3동,2.5,1시간,2,0,동작충효길(2코스_서울 국립묘지길),249,126.9656551,37.49672804
BE_IW43-0145,서울,동작구,사당2동,2.5,1시간,2,0,동작충효길(2코스_서울 국립묘지길),250,126.9802844,37.50295359
BE_IW43-0146,서울,동작구,사당2동,2.5,1시간,2,0,동작충효길(2코스_서울 국립묘지길),251,126.9794535,37.50400744
BE_IW43-0143,서울,동작구,사당3동,2.5,1시간,2,0,동작충효길(2코스_서울 국립묘지길),248,126.9606624,37.49711818
BE_IW43-0149,서울,동작구,사당2동,2.5,1시간,2,0,동작충효길(2코스_서울 국립묘지길),254,126.9804672,37.49740207
BE_IW43-0148,서울,동작구,사당2동,2.5,1시간,2,0,동작충효길(2코스_서울 국립묘지길),253,126.9745214,37.49430662
BE_IW43-0147,서울,동작구,사당3동,2.5,1시간,2,0,동작충효길(2코스_서울 국립묘지길),252,126.9688425,37.49256116
BE_IW43-0135,서울,동작구,흑석동,2.8,1시간30분,2,0,동작충효길(1코스_고구동산길),240,126.9591701,37.50041454
BE_IW43-0136,서울,동작구,노량진1동,2.8,1시간30분,2,0,동작충효길(1코스_고구동산길),241,126.9514763,37.51541165
BE_IW43-0137,서울,동작구,노량진1동,2.8,1시간30분,2,0,동작충효길(1코스_고구동산길),242,126.9514701,37.51474106
BE_IW43-0141,서울,동작구,흑석동,2.8,1시간30분,2,0,동작충효길(1코스_고구동산길),246,126.9548213,37.50490436
BE_IW43-0139,서울,동작구,흑석동,2.8,1시간30분,2,0,동작충효길(1코스_고구동산길),244,126.9532251,37.50999268
BE_IW43-0138,서울,동작구,상도1동,2.8,1시간30분,2,0,동작충효길(1코스_고구동산길),243,126.952112,37.50968429
BE_IW43-0131,서울,동작구,노량진1동,2.8,1시간30분,2,0,동작충효길(1코스_고구동산길),236,126.9514631,37.51515918
BE_IW43-0132,서울,동작구,노량진1동,2.8,1시간30분,2,0,동작충효길(1코스_고구동산길),237,126.9512216,37.51175277
BE_IW43-0133,서울,동작구,노량진1동,2.8,1시간30분,2,0,동작충효길(1코스_고구동산길),238,126.9524753,37.51047762
BE_IW43-0134,서울,동작구,상도1동,2.8,1시간30분,2,0,동작충효길(1코스_고구동산길),239,126.953924,37.50369785
BE_IW43-0142,서울,동작구,흑석동,2.8,1시간30분,2,0,동작충효길(1코스_고구동산길),247,126.9560677,37.50282967
BE_IW43-0140,서울,동작구,상도1동,2.8,1시간30분,2,0,동작충효길(1코스_고구동산길),245,126.9530673,37.50424131
BE_IW43-0129,서울,동작구,신대방2동,1.63,1시간,1,0,보라매공원 산책로,234,126.9207581,37.49559493
BE_IW43-0128,서울,동작구,신대방2동,1.63,1시간,1,0,보라매공원 산책로,233,126.9205395,37.49445222
BE_IW43-0127,서울,동작구,신대방2동,1.63,1시간,1,0,보라매공원 산책로,232,126.9146965,37.49353672
BE_IW43-0130,서울,동작구,신대방2동,1.63,1시간,1,0,보라매공원 산책로,235,126.9134581,37.49212037
BE_IW43-0113,서울,동작구,사당2동,7.34,4시간30분,2,0,묘지 나들이길,218,126.9625107,37.50081316
BE_IW43-0111,서울,동작구,사당2동,7.34,4시간30분,2,0,묘지 나들이길,216,126.9729055,37.50328443
BE_IW43-0118,서울,동작구,사당2동,7.34,4시간30분,2,0,묘지 나들이길,223,126.9663159,37.50556626
BE_IW43-0126,서울,동작구,사당2동,7.34,4시간30분,2,0,묘지 나들이길,231,126.9783228,37.50441467
BE_IW43-0117,서울,동작구,사당2동,7.34,4시간30분,2,0,묘지 나들이길,222,126.9627558,37.50152225
BE_IW43-0116,서울,동작구,사당2동,7.34,4시간30분,2,0,묘지 나들이길,221,126.9754952,37.50147993
BE_IW43-0125,서울,동작구,사당2동,7.34,4시간30분,2,0,묘지 나들이길,230,126.9803825,37.49845656
BE_IW43-0124,서울,동작구,사당2동,7.34,4시간30분,2,0,묘지 나들이길,229,126.974519,37.49425425
BE_IW43-0123,서울,동작구,사당3동,7.34,4시간30분,2,0,묘지 나들이길,228,126.9689086,37.49248783
BE_IW43-0122,서울,동작구,사당2동,7.34,4시간30분,2,0,묘지 나들이길,227,126.9745257,37.5059973
BE_IW43-0121,서울,동작구,사당2동,7.34,4시간30분,2,0,묘지 나들이길,226,126.9720551,37.49875598
BE_IW43-0120,서울,동작구,사당2동,7.34,4시간30분,2,0,묘지 나들이길,225,126.9700759,37.50252813
BE_IW43-0119,서울,동작구,흑석동,7.34,4시간30분,2,0,묘지 나들이길,224,126.9605359,37.5014291
BE_IW43-0115,서울,동작구,사당3동,7.34,4시간30분,2,0,묘지 나들이길,220,126.9656276,37.49669688
BE_IW43-0114,서울,동작구,사당3동,7.34,4시간30분,2,0,묘지 나들이길,219,126.9609253,37.49721362
BE_IW43-0112,서울,동작구,사당2동,7.34,4시간30분,2,0,묘지 나들이길,217,126.9642688,37.49791276
BE_IW43-1178,서울,서초구,반포4동,2.57,1시간,1,0,반포천,1269,127.0030786,37.50602289
BE_IW43-1180,서울,서초구,반포4동,2.57,1시간,1,0,반포천,1271,127.0020211,37.50077513
BE_IW43-1176,서울,서초구,반포2동,2.57,1시간,1,0,반포천,1267,126.9893608,37.50230101
BE_IW43-1175,서울,동작구,사당2동,2.57,1시간,1,0,반포천,1266,126.9829125,37.50285082
BE_IW43-1174,서울,서초구,반포동,2.57,1시간,1,0,반포천,1265,126.9852009,37.50403916
BE_IW43-1173,서울,동작구,사당2동,2.57,1시간,1,0,반포천,1264,126.9778156,37.5061595
BE_IW43-1172,서울,동작구,사당2동,2.57,1시간,1,0,반포천,1263,126.9780508,37.50602863
BE_IW43-1179,서울,서초구,반포2동,2.57,1시간,1,0,반포천,1270,127.0001531,37.50479583
BE_IW43-1177,서울,서초구,반포2동,2.57,1시간,1,0,반포천,1268,126.9935281,37.50218526
BE_IW43-1169,서울,서초구,내곡동,5.69,2시간,1,0,여의천,1389,127.0570393,37.4484153
BE_IW43-1168,서울,서초구,내곡동,5.69,2시간,1,0,여의천,1388,127.0504398,37.45725214
BE_IW43-1167,서울,서초구,양재동,5.69,2시간,1,0,여의천,1387,127.035522,37.47449199
BE_IW43-1166,서울,서초구,양재동,5.69,2시간,1,0,여의천,1386,127.0357971,37.47339519
BE_IW43-1171,서울,서초구,양재동,5.69,2시간,1,0,여의천,1391,127.0372159,37.47233355
BE_IW43-1170,서울,서초구,내곡동,5.69,2시간,1,0,여의천,1390,127.0666024,37.43728769
BE_IW43-0100,서울,서초구,반포4동,3.31,1시간 30분,1,0,서리골 서리풀 나들이길,205,127.0077996,37.50144396
BE_IW43-0101,서울,서초구,반포4동,3.31,1시간 30분,1,0,서리골 서리풀 나들이길,206,127.0043598,37.50254225
BE_IW43-0102,서울,서초구,반포4동,3.31,1시간 30분,1,0,서리골 서리풀 나들이길,207,126.9975971,37.49697409
BE_IW43-0103,서울,서초구,방배4동,3.31,1시간 30분,1,0,서리골 서리풀 나들이길,208,126.995481,37.49600221
BE_IW43-0104,서울,서초구,방배4동,3.31,1시간 30분,1,0,서리골 서리풀 나들이길,209,126.9951139,37.49228797
BE_IW43-0105,서울,서초구,방배1동,3.31,1시간 30분,1,0,서리골 서리풀 나들이길,210,126.9974898,37.4901613
BE_IW43-0106,서울,서초구,서초3동,3.31,1시간 30분,1,0,서리골 서리풀 나들이길,211,127.0007373,37.48746486
BE_IW43-0107,서울,서초구,방배1동,3.31,1시간 30분,1,0,서리골 서리풀 나들이길,212,126.9957833,37.48865983
BE_IW43-0108,서울,서초구,방배1동,3.31,1시간 30분,1,0,서리골 서리풀 나들이길,213,126.995341,37.48466597
BE_IW43-0109,서울,서초구,반포4동,3.31,1시간 30분,1,0,서리골 서리풀 나들이길,214,127.0010074,37.50098061
BE_IW43-0110,서울,서초구,방배1동,3.31,1시간 30분,1,0,서리골 서리풀 나들이길,215,126.9982991,37.48525548
BE_IW43-0092,서울,서초구,반포4동,3.31,1시간 30분,1,0,서리골 서리풀 나들이길,197,127.004338,37.50571685
BE_IW43-0093,서울,서초구,반포4동,3.31,1시간 30분,1,0,서리골 서리풀 나들이길,198,127.00446,37.50051356
BE_IW43-0094,서울,서초구,서초3동,3.31,1시간 30분,1,0,서리골 서리풀 나들이길,199,127.0032199,37.49951162
BE_IW43-0095,서울,서초구,반포4동,3.31,1시간 30분,1,0,서리골 서리풀 나들이길,200,127.0023701,37.49915958
BE_IW43-0096,서울,서초구,서초3동,3.31,1시간 30분,1,0,서리골 서리풀 나들이길,201,127.0022311,37.49789346
BE_IW43-0097,서울,서초구,서초3동,3.31,1시간 30분,1,0,서리골 서리풀 나들이길,202,127.0003506,37.49613496
BE_IW43-0098,서울,서초구,방배4동,3.31,1시간 30분,1,0,서리골 서리풀 나들이길,203,126.9973195,37.49276139
BE_IW43-0099,서울,서초구,반포2동,3.31,1시간 30분,1,0,서리골 서리풀 나들이길,204,127.0006204,37.50510476
BE_IW43-0089,서울,서초구,서초3동,3.86,2시간,2,0,우면산 나들이길,194,127.0082273,37.47540949
BE_IW43-0090,서울,서초구,서초3동,3.86,2시간,2,0,우면산 나들이길,195,127.0141498,37.48745812
BE_IW43-0091,서울,서초구,서초3동,3.86,2시간,2,0,우면산 나들이길,196,127.0084496,37.48163273
BE_IW43-1161,서울,서초구,내곡동,3.7,1시간,1,0,세곡천,1338,127.081622,37.46684805
BE_IW43-1162,서울,송파구,문정2동,3.7,1시간,1,0,세곡천,1339,127.1227102,37.48046833
BE_IW43-1159,서울,강남구,세곡동,3.7,1시간,1,0,세곡천,1336,127.0991024,37.46736537
BE_IW43-1165,서울,강남구,세곡동,3.7,1시간,1,0,세곡천,1485,127.1056296,37.46807001
BE_IW43-1164,서울,서초구,내곡동,3.7,1시간,1,0,세곡천,1341,127.0879599,37.46460289
BE_IW43-1157,서울,강남구,세곡동,3.7,1시간,1,0,세곡천,1334,127.1180441,37.46704221
BE_IW43-1163,서울,강남구,세곡동,3.7,1시간,1,0,세곡천,1340,127.1062726,37.4671504
BE_IW43-1158,서울,강남구,세곡동,3.7,1시간,1,0,세곡천,1335,127.1031581,37.46557242
BE_IW43-1160,서울,강남구,세곡동,3.7,1시간,1,0,세곡천,1337,127.0918022,37.46760488
BE_IW43-1148,서울,강남구,청담동,10.17,3시간,1,0,강남 서초 한강길,1146,127.0525635,37.53030911
BE_IW43-1150,서울,용산구,한남동,10.17,3시간,1,0,강남 서초 한강길,1148,126.9974553,37.54110267
BE_IW43-1149,서울,강남구,삼성1동,10.17,3시간,1,0,강남 서초 한강길,1147,127.0622855,37.52362415
BE_IW43-1143,서울,서초구,반포동,10.17,3시간,1,0,강남 서초 한강길,1141,126.9794086,37.50824481
BE_IW43-1151,서울,서초구,반포4동,10.17,3시간,1,0,강남 서초 한강길,1149,127.0013894,37.50051694
BE_IW43-1147,서울,강남구,암구정동,10.17,3시간,1,0,강남 서초 한강길,1145,127.040712,37.53386432
BE_IW43-1146,서울,강남구,암구정동,10.17,3시간,1,0,강남 서초 한강길,1144,127.0286683,37.53714172
BE_IW43-1145,서울,강남구,신사동,10.17,3시간,1,0,강남 서초 한강길,1143,127.0118379,37.52662787
BE_IW43-1144,서울,서초구,반포3동,10.17,3시간,1,0,강남 서초 한강길,1142,126.9980001,37.51558983
BE_IW43-1156,서울,강남구,신사동,10.17,3시간,1,0,강남 서초 한강길,1544,127.0259595,37.52996632
BE_IW43-1155,서울,강남구,청담동,10.17,3시간,1,0,강남 서초 한강길,1153,127.054719,37.52275879
BE_IW43-1154,서울,동작구,사당2동,10.17,3시간,1,0,강남 서초 한강길,1152,126.9785127,37.50474824
BE_IW43-1153,서울,용산구,서빙고동,10.17,3시간,1,0,강남 서초 한강길,1151,126.9799393,37.52651855
BE_IW43-1152,서울,강남구,대치2동,10.17,3시간,1,0,강남 서초 한강길,1150,127.0700724,37.4986389
BE_IW43-1138,서울,송파구,문정2동,2.48,1시간,1,0,독정천,1219,127.1208956,37.47376797
BE_IW43-1142,서울,송파구,문정2동,2.48,1시간,1,0,독정천,1223,127.1228236,37.4803227
BE_IW43-1141,서울,송파구,문정2동,2.48,1시간,1,0,독정천,1222,127.1237659,37.48164953
BE_IW43-1137,서울,송파구,문정2동,2.48,1시간,1,0,독정천,1218,127.1157618,37.48117531
BE_IW43-1131,서울,서초구,서초2동,9.53,3시간,1,0,양재천길,1380,127.0315182,37.4871955
BE_IW43-1130,서울,강남구,대치1동,9.53,3시간,1,0,양재천길,1379,127.0536789,37.49267437
BE_IW43-1129,서울,강남구,대치2동,9.53,3시간,1,0,양재천길,1378,127.0681632,37.49887643
BE_IW43-1128,서울,서초구,양재동,9.53,3시간,1,0,양재천길,1377,127.0362935,37.47250153
BE_IW43-1127,서울,강남구,개포2동,9.53,3시간,1,0,양재천길,1376,127.0640078,37.49162789
BE_IW43-1126,서울,강남구,개포2동,9.53,3시간,1,0,양재천길,1375,127.0707073,37.49383479
BE_IW43-1136,서울,강남구,대치2동,9.53,3시간,1,0,양재천길,1385,127.0697781,37.49683014
BE_IW43-1135,서울,강남구,대치1동,9.53,3시간,1,0,양재천길,1384,127.0580687,37.49192338
BE_IW43-1134,서울,강남구,도곡2동,9.53,3시간,1,0,양재천길,1383,127.0475226,37.48653868
BE_IW43-1133,서울,서초구,양재동,9.53,3시간,1,0,양재천길,1382,127.0332678,37.47617195
BE_IW43-1132,서울,서초구,양재동,9.53,3시간,1,0,양재천길,1381,127.0278236,37.47175598
BE_IW43-0087,서울,강남구,개포4동,6.02,2시간30분,2,0,구룡산 나들이길,192,127.0563728,37.47807733
BE_IW43-0088,서울,강남구,개포4동,6.02,2시간30분,2,0,구룡산 나들이길,193,127.0556802,37.47524656
BE_IW43-0085,서울,강남구,개포4동,6.02,2시간30분,2,0,구룡산 나들이길,190,127.0502924,37.48042168
BE_IW43-0084,서울,강남구,개포4동,6.02,2시간30분,2,0,구룡산 나들이길,189,127.047773,37.48576126
BE_IW43-0083,서울,강남구,도곡2동,6.02,2시간30분,2,0,구룡산 나들이길,188,127.0462454,37.48554422
BE_IW43-0082,서울,강남구,개포4동,6.02,2시간30분,2,0,구룡산 나들이길,187,127.0505831,37.4749054
BE_IW43-0081,서울,강남구,도곡2동,6.02,2시간30분,2,0,구룡산 나들이길,186,127.0444628,37.4893441
BE_IW43-0086,서울,강남구,개포4동,6.02,2시간30분,2,0,구룡산 나들이길,191,127.0518295,37.47872919
BE_IW43-0075,서울,강남구,개포2동,4.8,3시간,2,0,대모산 나들이길,180,127.0711802,37.48045189
BE_IW43-0080,서울,강남구,일원본동,4.8,3시간,2,0,대모산 나들이길,185,127.0929517,37.48295426
BE_IW43-0079,서울,강남구,일원본동,4.8,3시간,2,0,대모산 나들이길,184,127.0814038,37.48400557
BE_IW43-0078,서울,강남구,일원본동,4.8,3시간,2,0,대모산 나들이길,183,127.0729709,37.48020692
BE_IW43-0077,서울,서초구,내곡동,4.8,3시간,2,0,대모산 나들이길,182,127.0752647,37.47752887
BE_IW43-0076,서울,강남구,개포2동,4.8,3시간,2,0,대모산 나들이길,181,127.0716716,37.4796927
BE_IW43-0074,서울,강남구,일원본동,4.8,3시간,2,0,대모산 나들이길,179,127.0712989,37.48096058
BE_IW43-0073,서울,강남구,일원본동,4.8,3시간,2,0,대모산 나들이길,178,127.0726722,37.48143982
BE_IW43-0072,서울,강남구,일원본동,4.8,3시간,2,0,대모산 나들이길,177,127.0753889,37.48198388
BE_IW43-0071,서울,강남구,일원본동,4.8,3시간,2,0,대모산 나들이길,176,127.0775218,37.48232183
BE_IW43-0070,서울,강남구,일원본동,4.8,3시간,2,0,대모산 나들이길,175,127.0779934,37.48256132
BE_IW43-0069,서울,강남구,일원본동,4.8,3시간,2,0,대모산 나들이길,174,127.0795542,37.48041384
BE_IW43-0067,서울,강남구,삼성2동,4.15,2시간,2,0,선정릉 나들이길,172,127.0467315,37.50767127
BE_IW43-0068,서울,강남구,삼성1동,4.15,2시간,2,0,선정릉 나들이길,173,127.0575031,37.51547278
BE_IW43-0062,서울,강남구,삼성2동,4.15,2시간,2,0,선정릉 나들이길,167,127.04513,37.51014861
BE_IW43-0064,서울,강남구,삼성2동,4.15,2시간,2,0,선정릉 나들이길,169,127.0447944,37.5120971
BE_IW43-0065,서울,강남구,삼성2동,4.15,2시간,2,0,선정릉 나들이길,170,127.0441533,37.51123072
BE_IW43-0066,서울,강남구,삼성1동,4.15,2시간,2,0,선정릉 나들이길,171,127.0603914,37.51205556
BE_IW43-0063,서울,강남구,삼성2동,4.15,2시간,2,0,선정릉 나들이길,168,127.050434,37.51094415
BE_IW43-0059,서울,강남구,삼성1동,4.15,2시간,2,0,선정릉 나들이길,164,127.0555727,37.5183776
BE_IW43-0060,서울,강남구,삼성1동,4.15,2시간,2,0,선정릉 나들이길,165,127.0540794,37.51822354
BE_IW43-0061,서울,강남구,삼성2동,4.15,2시간,2,0,선정릉 나들이길,166,127.0495394,37.50966818
BE_IW43-0058,서울,강남구,삼성1동,4.15,2시간,2,0,선정릉 나들이길,163,127.0559156,37.51670676
BE_IW43-1121,서울,강남구,대치2동,7.14,2시간,1,0,탄천길,1121,127.0599586,37.51092122
BE_IW43-1122,서울,송파구,잠실3동,7.14,2시간,1,0,탄천길,1122,127.0957249,37.5136683
BE_IW43-1123,서울,송파구,잠실3동,7.14,2시간,1,0,탄천길,1123,127.0999388,37.5120813
BE_IW43-1124,서울,광진구,능동,7.14,2시간,1,0,탄천길,1124,127.0754071,37.55361666
BE_IW43-1125,서울,송파구,잠실2동,7.14,2시간,1,0,탄천길,1125,127.0700961,37.5155801
BE_IW43-1115,서울,송파구,잠실2동,7.14,2시간,1,0,탄천길,1115,127.0700961,37.5155801
BE_IW43-1116,서울,강남구,대치2동,7.14,2시간,1,0,탄천길,1116,127.0672088,37.50507522
BE_IW43-1117,서울,강남구,일원1동,7.14,2시간,1,0,탄천길,1117,127.0911291,37.49871555
BE_IW43-1118,서울,송파구,가락1동,7.14,2시간,1,0,탄천길,1118,127.1042483,37.49446902
BE_IW43-1119,서울,송파구,문정2동,7.14,2시간,1,0,탄천길,1119,127.1140084,37.48239273
BE_IW43-1120,서울,강남구,수서동,7.14,2시간,1,0,탄천길,1120,127.0992948,37.4900221
BE_IW43-0054,서울,송파구,잠실4동,30.21,8시간,3,0,송파 소리길,159,127.1013526,37.52412545
BE_IW43-0055,서울,송파구,잠실3동,30.21,8시간,3,0,송파 소리길,160,127.0956981,37.51377202
BE_IW43-0056,서울,송파구,잠실3동,30.21,8시간,3,0,송파 소리길,161,127.0988306,37.51198559
BE_IW43-0057,서울,송파구,오금동,30.21,8시간,3,0,송파 소리길,162,127.1297219,37.50342644
BE_IW43-0033,서울,송파구,잠실6동,30.21,8시간,3,0,송파 소리길,138,127.1023972,37.51456831
BE_IW43-0034,서울,송파구,오륜동,30.21,8시간,3,0,송파 소리길,139,127.1110451,37.52040496
BE_IW43-0035,서울,송파구,오륜동,30.21,8시간,3,0,송파 소리길,140,127.1192537,37.51844927
BE_IW43-0036,서울,송파구,오륜동,30.21,8시간,3,0,송파 소리길,141,127.1211843,37.52089685
BE_IW43-0037,서울,송파구,오륜동,30.21,8시간,3,0,송파 소리길,142,127.1164467,37.52571691
BE_IW43-0038,서울,송파구,오륜동,30.21,8시간,3,0,송파 소리길,143,127.1151926,37.52624063
BE_IW43-0039,서울,강남구,대치2동,30.21,8시간,3,0,송파 소리길,144,127.070212,37.50323442
BE_IW43-0040,서울,강남구,일원2동,30.21,8시간,3,0,송파 소리길,145,127.0717198,37.50311149
BE_IW43-0041,서울,강남구,수서동,30.21,8시간,3,0,송파 소리길,146,127.1045195,37.49145889
BE_IW43-0042,서울,송파구,문정2동,30.21,8시간,3,0,송파 소리길,147,127.1156909,37.48076672
BE_IW43-0043,서울,송파구,문정2동,30.21,8시간,3,0,송파 소리길,148,127.1247124,37.47922897
BE_IW43-0044,서울,송파구,문정2동,30.21,8시간,3,0,송파 소리길,149,127.124092,37.48084976
BE_IW43-0045,서울,송파구,장지동,30.21,8시간,3,0,송파 소리길,150,127.1291202,37.48478223
BE_IW43-0046,서울,송파구,장지동,30.21,8시간,3,0,송파 소리길,151,127.1326511,37.4886171
BE_IW43-0047,서울,송파구,장지동,30.21,8시간,3,0,송파 소리길,152,127.1344081,37.49273327
BE_IW43-0048,서울,송파구,오금동,30.21,8시간,3,0,송파 소리길,153,127.1350399,37.50416249
BE_IW43-0049,서울,송파구,잠실3동,30.21,8시간,3,0,송파 소리길,154,127.0976442,37.51544914
BE_IW43-0050,서울,송파구,오륜동,30.21,8시간,3,0,송파 소리길,155,127.1211795,37.51674435
BE_IW43-0051,서울,송파구,오륜동,30.21,8시간,3,0,송파 소리길,156,127.1257777,37.51506038
BE_IW43-0052,서울,송파구,오륜동,30.21,8시간,3,0,송파 소리길,157,127.1286805,37.51904959
BE_IW43-0053,서울,송파구,오륜동,30.21,8시간,3,0,송파 소리길,158,127.1269906,37.52340074
BE_IW43-1110,서울,강동구,둔촌2동,17.98,5시간40분,1,0,송파 강동 한강길,1352,127.1490528,37.53280835
BE_IW43-1100,서울,송파구,잠실2동,17.98,5시간40분,1,0,송파 강동 한강길,1342,127.0713114,37.51388893
BE_IW43-1114,서울,강동구,상일동,17.98,5시간40분,1,0,송파 강동 한강길,1546,127.1659354,37.5596066
BE_IW43-1111,서울,송파구,석촌동,17.98,5시간40분,1,0,송파 강동 한강길,1354,127.0999184,37.50566606
BE_IW43-1101,서울,송파구,잠실2동,17.98,5시간40분,1,0,송파 강동 한강길,1343,127.0690712,37.5221636
BE_IW43-1102,서울,송파구,잠실4동,17.98,5시간40분,1,0,송파 강동 한강길,1344,127.1017729,37.52338862
BE_IW43-1103,서울,송파구,잠실6동,17.98,5시간40분,1,0,송파 강동 한강길,1345,127.0944592,37.52390559
BE_IW43-1112,서울,강동구,암사2동,17.98,5시간40분,1,0,송파 강동 한강길,1355,127.1253539,37.55283494
BE_IW43-1104,서울,송파구,풍납2동,17.98,5시간40분,1,0,송파 강동 한강길,1346,127.1049854,37.53110073
BE_IW43-1105,서울,강동구,천호2동,17.98,5시간40분,1,0,송파 강동 한강길,1347,127.1173429,37.54759601
BE_IW43-1106,서울,강동구,암사2동,17.98,5시간40분,1,0,송파 강동 한강길,1348,127.127437,37.56555553
BE_IW43-1107,서울,강동구,고덕2동,17.98,5시간40분,1,0,송파 강동 한강길,1349,127.1555677,37.57347126
BE_IW43-1109,서울,송파구,오륜동,17.98,5시간40분,1,0,송파 강동 한강길,1351,127.1166717,37.5257285
BE_IW43-1097,서울,송파구,오륜동,5.49,2시간,1,0,성내천길,1304,127.1219168,37.52653122
BE_IW43-1099,서울,송파구,거여1동,5.49,2시간,1,0,성내천길,1422,127.1421098,37.49573435
BE_IW43-1098,서울,송파구,오륜동,5.49,2시간,1,0,성내천길,1305,127.1188635,37.51814362
BE_IW43-1096,서울,송파구,오륜동,5.49,2시간,1,0,성내천길,1303,127.1204341,37.52331194
BE_IW43-1095,서울,송파구,오륜동,5.49,2시간,1,0,성내천길,1302,127.1284017,37.51881577
BE_IW43-1094,서울,송파구,마천2동,5.49,2시간,1,0,성내천길,1301,127.144389,37.50297411
BE_IW43-1093,서울,송파구,오륜동,5.49,2시간,1,0,성내천길,1300,127.1342619,37.51132364
BE_IW43-1092,서울,송파구,오륜동,5.49,2시간,1,0,성내천길,1299,127.1321627,37.5173615
BE_IW43-1091,서울,송파구,오륜동,5.49,2시간,1,0,성내천길,1298,127.1260341,37.52441038
BE_IW43-1090,서울,송파구,오륜동,5.49,2시간,1,0,성내천길,1297,127.1167748,37.52747981
BE_IW43-1089,서울,송파구,잠실4동,5.49,2시간,1,0,성내천길,1296,127.1143088,37.52611034
BE_IW43-1088,서울,송파구,오륜동,5.49,2시간,1,0,성내천길,1295,127.116053,37.52534236
BE_IW43-1087,서울,송파구,잠실4동,5.49,2시간,1,0,성내천길,1294,127.1057846,37.52652106
BE_IW43-1086,서울,송파구,풍납2동,5.49,2시간,1,0,성내천길,1293,127.1050229,37.52763012
BE_IW43-0032,서울,송파구,방이1동,4.17,1시간,1,0,석촌호수 산책로,137,127.1183264,37.51037684
BE_IW43-0031,서울,송파구,석촌동,4.17,1시간,1,0,석촌호수 산책로,136,127.1045948,37.50801219
BE_IW43-0027,서울,송파구,잠실3동,4.17,1시간,1,0,석촌호수 산책로,131,127.0977916,37.51543933
BE_IW43-0030,서울,송파구,석촌동,4.17,1시간,1,0,석촌호수 산책로,134,127.100541,37.50558893
BE_IW43-0026,서울,송파구,잠실6동,4.17,1시간,1,0,석촌호수 산책로,130,127.0994228,37.51623444
BE_IW43-0025,서울,송파구,잠실6동,4.17,1시간,1,0,석촌호수 산책로,129,127.1022279,37.51451468
BE_IW43-0029,서울,송파구,잠실3동,4.17,1시간,1,0,석촌호수 산책로,133,127.098666,37.51193231
BE_IW43-0028,서울,송파구,잠실3동,4.17,1시간,1,0,석촌호수 산책로,132,127.0956822,37.5137162
BE_IW43-0018,서울,송파구,오륜동,3.67,3시간,2,0,몽촌토성 나들이길,960,127.1218453,37.52052204
BE_IW43-0016,서울,송파구,오륜동,3.67,3시간,2,0,몽촌토성 나들이길,958,127.1162941,37.52267331
BE_IW43-0019,서울,송파구,오륜동,3.67,3시간,2,0,몽촌토성 나들이길,961,127.1226983,37.52391659
BE_IW43-0020,서울,송파구,오륜동,3.67,3시간,2,0,몽촌토성 나들이길,962,127.110986,37.52037635
BE_IW43-0017,서울,송파구,오륜동,3.67,3시간,2,0,몽촌토성 나들이길,959,127.1193035,37.51808627
BE_IW43-0021,서울,송파구,오륜동,3.67,3시간,2,0,몽촌토성 나들이길,963,127.1207536,37.5166335
BE_IW43-0022,서울,송파구,오륜동,3.67,3시간,2,0,몽촌토성 나들이길,964,127.1257449,37.51531348
BE_IW43-0023,서울,송파구,오륜동,3.67,3시간,2,0,몽촌토성 나들이길,965,127.1287735,37.5192639
BE_IW43-0024,서울,송파구,오륜동,3.67,3시간,2,0,몽촌토성 나들이길,966,127.1266401,37.52351024
BE_IW43-0014,서울,강동구,둔촌2동,5.21,3시간,2,0,일자산 숲길 나들이길,127,127.1500677,37.53419671
BE_IW43-0015,서울,강동구,둔촌2동,5.21,3시간,2,0,일자산 숲길 나들이길,128,127.1477042,37.53423061
BE_IW43-0007,서울,강동구,둔촌2동,5.21,3시간,2,0,일자산 숲길 나들이길,120,127.1536247,37.54055393
BE_IW43-0006,서울,강동구,길동,5.21,3시간,2,0,일자산 숲길 나들이길,119,127.1552033,37.54476026
BE_IW43-0005,서울,강동구,길동,5.21,3시간,2,0,일자산 숲길 나들이길,118,127.1525368,37.54364342
BE_IW43-0008,서울,강동구,둔촌2동,5.21,3시간,2,0,일자산 숲길 나들이길,121,127.1518991,37.53892597
BE_IW43-0012,서울,강동구,둔촌2동,5.21,3시간,2,0,일자산 숲길 나들이길,125,127.1494076,37.53360173
BE_IW43-0013,서울,강동구,둔촌2동,5.21,3시간,2,0,일자산 숲길 나들이길,126,127.1497619,37.53399811
BE_IW43-1081,서울,강동구,강일동,3.98,1시간 30분,1,0,망월천길,1239,127.1759544,37.57304983
BE_IW43-1085,서울,강동구,강일동,3.98,1시간 30분,1,0,망월천길,1243,127.1709426,37.57074536
BE_IW43-1084,서울,강동구,강일동,3.98,1시간 30분,1,0,망월천길,1242,127.1686863,37.5713526
BE_IW43-1083,서울,강동구,강일동,3.98,1시간 30분,1,0,망월천길,1241,127.1731771,37.57284845
BE_IW43-1079,서울,강동구,고덕2동,4.18,1시간 30분,1,0,고덕천길,1173,127.1686345,37.56344439
BE_IW43-1080,서울,강동구,상일동,4.18,1시간 30분,1,0,고덕천길,1420,127.1641199,37.55939924
BE_IW43-1074,서울,강동구,고덕2동,4.18,1시간 30분,1,0,고덕천길,1168,127.1564215,37.57300041
BE_IW43-1075,서울,강동구,고덕2동,4.18,1시간 30분,1,0,고덕천길,1169,127.1616033,37.56966351
BE_IW43-1076,서울,강동구,강일동,4.18,1시간 30분,1,0,고덕천길,1170,127.1709036,37.56521525
BE_IW43-1077,서울,강동구,상일동,4.18,1시간 30분,1,0,고덕천길,1171,127.1712711,37.55437454
BE_IW43-1078,서울,강동구,상일동,4.18,1시간 30분,1,0,고덕천길,1172,127.1676757,37.54956768
BE_IW43-0002,서울,강동구,명일1동,1.9,1시간30분,1,0,고덕산 산책로,115,127.1420872,37.55462988
BE_IW43-0001,서울,강동구,암사3동,1.9,1시간30분,1,0,고덕산 산책로,114,127.1427452,37.56860964
BE_IW43-0004,서울,강동구,암사3동,1.9,1시간30분,1,0,고덕산 산책로,117,127.141504,37.56582112
BE_IW43-0003,서울,강동구,고덕1동,1.9,1시간30분,1,0,고덕산 산책로,116,127.1454189,37.56990588
BE_IW43-0958,서울,성북구,정릉4동,34.5,17시간,2,0,북한산 코스,1014,127.0047832,37.62372967
BE_IW43-0952,서울,도봉구,도봉2봉,34.5,17시간,2,0,북한산 코스,73,127.0441525,37.69168905
BE_IW43-0953,서울,은평구,진관동,34.5,17시간,2,0,북한산 코스,74,126.9350425,37.63018491
BE_IW43-0954,서울,은평구,불광1동,34.5,17시간,2,0,북한산 코스,75,126.9379458,37.61377533
BE_IW43-0955,서울,종로구,평창동,34.5,17시간,2,0,북한산 코스,76,126.9493108,37.61092148
BE_IW43-0956,서울,종로구,평창동,34.5,17시간,2,0,북한산 코스,77,126.9516412,37.61186439
BE_IW43-0969,서울,도봉구,도봉1동,34.5,17시간,2,0,북한산 코스,1525,127.0342611,37.68881312
BE_IW43-0968,서울,강북구,우이동,34.5,17시간,2,0,북한산 코스,1524,127.0143729,37.66442139
BE_IW43-0967,서울,강북구,삼양동,34.5,17시간,2,0,북한산 코스,1523,127.0084083,37.62580168
BE_IW43-0966,서울,종로구,평창동,34.5,17시간,2,0,북한산 코스,1521,126.9801034,37.61569121
BE_IW43-0965,서울,은평구,불광1동,34.5,17시간,2,0,북한산 코스,1520,126.9373772,37.61541281
BE_IW43-0964,서울,은평구,진관동,34.5,17시간,2,0,북한산 코스,1514,126.9347521,37.63058192
BE_IW43-0963,서울,은평구,진관동,34.5,17시간,2,0,북한산 코스,1479,126.9172173,37.63872703
BE_IW43-0962,서울,강북구,우이동,34.5,17시간,2,0,북한산 코스,1018,127.0046608,37.66364568
BE_IW43-0961,서울,강북구,우이동,34.5,17시간,2,0,북한산 코스,1017,127.00439,37.65219148
BE_IW43-0960,서울,강북구,인수동,34.5,17시간,2,0,북한산 코스,1016,126.9989959,37.645107
BE_IW43-0959,서울,강북구,수유1동,34.5,17시간,2,0,북한산 코스,1015,127.0067175,37.63009613
BE_IW43-0957,서울,종로구,평창동,34.5,17시간,2,0,북한산 코스,1013,126.97759,37.61702375
BE_IW43-0939,서울,마포구,상암동,16.6,6시간 10분,2,0,봉암봉 코스,65,126.8846483,37.57576982
BE_IW43-0951,서울,은평구,진관동,16.6,6시간 10분,2,0,봉암봉 코스,1512,126.9127471,37.63846929
BE_IW43-0950,서울,은평구,증산동,16.6,6시간 10분,2,0,봉암봉 코스,1511,126.900587,37.58793783
BE_IW43-0949,서울,강서구,가양2동,16.6,6시간 10분,2,0,봉암봉 코스,1510,126.85446,37.5665231
BE_IW43-0948,서울,은평구,수색동,16.6,6시간 10분,2,0,봉암봉 코스,1484,126.8994097,37.57926025
BE_IW43-0947,서울,마포구,성산2동,16.6,6시간 10분,2,0,봉암봉 코스,1483,126.8965879,37.57313113
BE_IW43-0945,서울,은평구,진관동,16.6,6시간 10분,2,0,봉암봉 코스,71,126.9172173,37.63872703
BE_IW43-0944,서울,은평구,진관동,16.6,6시간 10분,2,0,봉암봉 코스,70,126.9248743,37.63700927
BE_IW43-0943,서울,은평구,구산동,16.6,6시간 10분,2,0,봉암봉 코스,69,126.9029423,37.61864567
BE_IW43-0942,서울,서대문구,북가좌1동,16.6,6시간 10분,2,0,봉암봉 코스,68,126.9012343,37.57985575
BE_IW43-0941,서울,마포구,성산2동,16.6,6시간 10분,2,0,봉암봉 코스,67,126.8952413,37.57276957
BE_IW43-0940,서울,마포구,상암동,16.6,6시간 10분,2,0,봉암봉 코스,66,126.8861816,37.57057876
BE_IW43-0938,서울,마포구,상암동,16.6,6시간 10분,2,0,봉암봉 코스,64,126.8746906,37.5783846
BE_IW43-0937,서울,강서구,등촌1동,16.6,6시간 10분,2,0,봉암봉 코스,63,126.8532311,37.56317639
BE_IW43-0930,서울,양천구,목1동,18,4시간 30분,1,0,안양천 코스,59,126.8803107,37.53334649
BE_IW43-0929,서울,구로구,신도림동,18,4시간 30분,1,0,안양천 코스,58,126.8804956,37.51735611
BE_IW43-0928,서울,구로구,구로1동,18,4시간 30분,1,0,안양천 코스,57,126.8686712,37.49950405
BE_IW43-0927,서울,금천구,가산동,18,4시간 30분,1,0,안양천 코스,56,126.8739708,37.48063966
BE_IW43-0926,서울,금천구,시흥1동,18,4시간 30분,1,0,안양천 코스,55,126.8927505,37.45848899
BE_IW43-0936,서울,강서구,염창동,18,4시간 30분,1,0,안양천 코스,1509,126.8625063,37.56469093
BE_IW43-0935,서울,구로구,구로1동,18,4시간 30분,1,0,안양천 코스,1508,126.8688424,37.49865747
BE_IW43-0933,서울,강서구,가양3동,18,4시간 30분,1,0,안양천 코스,62,126.8535911,37.56416516
BE_IW43-0932,서울,강서구,가양3동,18,4시간 30분,1,0,안양천 코스,61,126.8612664,37.56509772
BE_IW43-0931,서울,영등포구,양평2동,18,4시간 30분,1,0,안양천 코스,60,126.8804933,37.5511566
BE_IW43-0919,서울,금천구,시흥2동,12.7,5시간 50분,2,0,관악산 코스,51,126.9233972,37.45516981
BE_IW43-0913,서울,관악구,남현동,12.7,5시간 50분,2,0,관악산 코스,45,126.9794523,37.47917971
BE_IW43-0914,서울,관악구,남현동,12.7,5시간 50분,2,0,관악산 코스,46,126.9749544,37.47004438
BE_IW43-0915,서울,관악구,낙석대동,12.7,5시간 50분,2,0,관악산 코스,47,126.9576715,37.47394809
BE_IW43-0916,서울,관악구,대학동,12.7,5시간 50분,2,0,관악산 코스,48,126.9462283,37.46932617
BE_IW43-0917,서울,관악구,대학동,12.7,5시간 50분,2,0,관악산 코스,49,126.9410936,37.4640373
BE_IW43-0924,서울,금천구,시흥3동,12.7,5시간 50분,2,0,관악산 코스,1506,126.9045032,37.43666012
BE_IW43-0923,서울,관악구,대학동,12.7,5시간 50분,2,0,관악산 코스,1505,126.9446453,37.47032565
BE_IW43-0922,서울,관악구,남현동,12.7,5시간 50분,2,0,관악산 코스,1504,126.9762632,37.47205831
BE_IW43-0920,서울,금천구,시흥2동,12.7,5시간 50분,2,0,관악산 코스,52,126.9203955,37.44883473
BE_IW43-0918,서울,관악구,삼성동,12.7,5시간 50분,2,0,관악산 코스,50,126.9273243,37.45969303
BE_IW43-0912,서울,서초구,방배3동,17.9,8시간,2,0,대모산 우면산 코스,1503,126.9844503,37.4762926
BE_IW43-0911,서울,서초구,양재동,17.9,8시간,2,0,대모산 우면산 코스,1502,127.035066,37.47195655
BE_IW43-0910,서울,강남구,수서동,17.9,8시간,2,0,대모산 우면산 코스,1501,127.0998839,37.48938599
BE_IW43-0909,서울,서초구,서초1동,17.9,8시간,2,0,대모산 우면산 코스,44,127.0183172,37.48280634
BE_IW43-0908,서울,서초구,양재1동,17.9,8시간,2,0,대모산 우면산 코스,43,127.0169497,37.47017602
BE_IW43-0907,서울,서초구,내곡동,17.9,8시간,2,0,대모산 우면산 코스,42,127.0729756,37.46984504
BE_IW43-0906,서울,서초구,양재동,17.9,8시간,2,0,대모산 우면산 코스,41,127.0288083,37.47175061
BE_IW43-0905,서울,관악구,남현동,17.9,8시간,2,0,대모산 우면산 코스,40,126.9794687,37.47773777
BE_IW43-0904,서울,서초구,방배3동,17.9,8시간,2,0,대모산 우면산 코스,39,126.985455,37.47564869
BE_IW43-0903,서울,서초구,양재동,17.9,8시간,2,0,대모산 우면산 코스,38,127.0284295,37.47082735
BE_IW43-0902,서울,서초구,양재동,17.9,8시간,2,0,대모산 우면산 코스,37,127.0332989,37.47415427
BE_IW43-0901,서울,서초구,양재동,17.9,8시간,2,0,대모산 우면산 코스,36,127.0344946,37.47254033
BE_IW43-0900,서울,서초구,양재동,17.9,8시간,2,0,대모산 우면산 코스,35,127.036288,37.47244186
BE_IW43-0899,서울,강남구,수서동,17.9,8시간,2,0,대모산 우면산 코스,34,127.0992178,37.48989226
BE_IW43-0888,서울,강동구,둔촌2동,26.1,9시간,1,0,고덕 일자산 코스,26,127.152289,37.53999707
BE_IW43-0887,서울,강동구,길동,26.1,9시간,1,0,고덕 일자산 코스,25,127.1518198,37.54242108
BE_IW43-0886,서울,강동구,상일동,26.1,9시간,1,0,고덕 일자산 코스,24,127.1578204,37.55661195
BE_IW43-0885,서울,강동구,고덕2동,26.1,9시간,1,0,고덕 일자산 코스,23,127.1572811,37.5646951
BE_IW43-0884,서울,강동구,암사2동,26.1,9시간,1,0,고덕 일자산 코스,22,127.1279218,37.5633139
BE_IW43-0883,서울,강동구,암사2동,26.1,9시간,1,0,고덕 일자산 코스,21,127.1198202,37.55394478
BE_IW43-0882,서울,광진구,광장동,26.1,9시간,1,0,고덕 일자산 코스,20,127.1023488,37.54810861
BE_IW43-0896,서울,강동구,상일동,26.1,9시간,1,0,고덕 일자산 코스,1497,127.1547752,37.55805693
BE_IW43-0898,서울,강남구,수서동,26.1,9시간,1,0,고덕 일자산 코스,1499,127.1047736,37.4910455
BE_IW43-0895,서울,광진구,광장동,26.1,9시간,1,0,고덕 일자산 코스,1496,127.1069257,37.54873682
BE_IW43-0894,서울,강동구,고덕1동,26.1,9시간,1,0,고덕 일자산 코스,1482,127.1523163,37.55796029
BE_IW43-0893,서울,강남구,수서동,26.1,9시간,1,0,고덕 일자산 코스,33,127.1002762,37.4899879
BE_IW43-0892,서울,송파구,문정2동,26.1,9시간,1,0,고덕 일자산 코스,32,127.1229367,37.48037653
BE_IW43-0891,서울,송파구,장지동,26.1,9시간,1,0,고덕 일자산 코스,30,127.1307799,37.49219975
BE_IW43-0897,서울,송파구,오륜동,26.1,9시간,1,0,고덕 일자산 코스,1498,127.1383199,37.51514473
BE_IW43-0890,서울,송파구,오륜동,26.1,9시간,1,0,고덕 일자산 코스,29,127.136862,37.51465557
BE_IW43-0889,서울,송파구,오륜동,26.1,9시간,1,0,고덕 일자산 코스,27,127.1251731,37.5207676
BE_IW43-0878,서울,중랑구,망우본동,12.6,5시간 10분,2,0,용마산 아차산 코스,1481,127.1058791,37.60927062
BE_IW43-0876,서울,광진구,광장동,12.6,5시간 10분,2,0,용마산 아차산 코스,19,127.1020717,37.55598082
BE_IW43-0872,서울,중랑구,망우본동,12.6,5시간 10분,2,0,용마산 아차산 코스,14,127.1122319,37.60145189
BE_IW43-0874,서울,광진구,광장동,12.6,5시간 10분,2,0,용마산 아차산 코스,16,127.0979704,37.55451418
BE_IW43-0871,서울,중랑구,망우본동,12.6,5시간 10분,2,0,용마산 아차산 코스,13,127.1077785,37.60734038
BE_IW43-0870,서울,중랑구,묵1동,12.6,5시간 10분,2,0,용마산 아차산 코스,12,127.0813927,37.62224104
BE_IW43-0881,서울,광진구,광장동,12.6,5시간 10분,2,0,용마산 아차산 코스,1515,127.0976915,37.55518188
BE_IW43-0880,서울,중랑구,면목3·8동,12.6,5시간 10분,2,0,용마산 아차산 코스,1494,127.1048039,37.5907025
BE_IW43-0879,서울,노원구,공릉2동,12.6,5시간 10분,2,0,용마산 아차산 코스,1493,127.0828397,37.62321277
BE_IW43-0877,서울,광진구,광장동,12.6,5시간 10분,2,0,용마산 아차산 코스,1480,127.1020702,37.54807535
BE_IW43-0869,서울,노원구,공릉2동,14.3,6시간 30분,3,0,수락산 불암산 코스,1492,127.0828682,37.62323113
BE_IW43-0867,서울,도봉구,도봉2봉,14.3,6시간 30분,3,0,수락산 불암산 코스,1490,127.0448408,37.69199457
BE_IW43-0866,서울,노원구,상계1동,14.3,6시간 30분,3,0,수락산 불암산 코스,1478,127.0531731,37.68086533
BE_IW43-0865,서울,노원구,상계3·4동,14.3,6시간 30분,3,0,수락산 불암산 코스,1477,127.0770669,37.67308129
BE_IW43-0864,서울,노원구,중계본동,14.3,6시간 30분,3,0,수락산 불암산 코스,11,127.089149,37.65553615
BE_IW43-0863,서울,노원구,상계3·4동,14.3,6시간 30분,3,0,수락산 불암산 코스,10,127.0903449,37.68745604
BE_IW43-0862,서울,노원구,공릉2동,14.3,6시간 30분,3,0,수락산 불암산 코스,9,127.0822535,37.62327057
BE_IW43-0854,서울,도봉구,도봉2봉,14.3,6시간 30분,3,0,수락산 불암산 코스,1,127.044535,37.69169438
BE_IW43-0860,서울,노원구,중계본동,14.3,6시간 30분,3,0,수락산 불암산 코스,7,127.0847495,37.65367794
BE_IW43-0855,서울,도봉구,도봉2봉,14.3,6시간 30분,3,0,수락산 불암산 코스,2,127.045967,37.69220254
BE_IW43-0861,서울,노원구,공릉2동,14.3,6시간 30분,3,0,수락산 불암산 코스,8,127.0904169,37.63963149
BE_IW43-0859,서울,노원구,상계3·4동,14.3,6시간 30분,3,0,수락산 불암산 코스,6,127.0780044,37.6656508
BE_IW43-0858,서울,노원구,상계3·4동,14.3,6시간 30분,3,0,수락산 불암산 코스,5,127.0823547,37.66947671
BE_IW43-0857,서울,노원구,상계3·4동,14.3,6시간 30분,3,0,수락산 불암산 코스,4,127.0813093,37.67006119
BE_IW43-0856,서울,노원구,상계3·4동,14.3,6시간 30분,3,0,수락산 불암산 코스,3,127.0903143,37.68003877
BE_IW43-0868,서울,노원구,상계3·4동,14.3,6시간 30분,3,0,수락산 불암산 코스,1491,127.0815687,37.67114563
